{"type":"FeatureCollection", "features": [
{"type":"Feature","geometry":{"type":"Polygon","coordinates":[[[35.547741,33.8878196],[35.5478378,33.8878961],[35.5470888,33.8885496],[35.5469919,33.8884731],[35.547741,33.8878196]]]},"properties":{"fid":13,"id":"way/31313399","@id":"way/31313399","AREA":1237}},
{"type":"Feature","geometry":{"type":"Polygon","coordinates":[[[35.5469033,33.8870092],[35.547124,33.8871858],[35.5461908,33.8879895],[35.5459701,33.8878129],[35.5469033,33.8870092]]]},"properties":{"fid":14,"id":"way/31313406","@id":"way/31313406","AREA":3511}},
{"type":"Feature","geometry":{"type":"Polygon","coordinates":[[[35.53689598950286,33.88912360383413],[35.53706842843046,33.88916283834315],[35.53705861513566,33.88959348493123],[35.53689541513567,33.88959458493123],[35.53689598950286,33.88912360383413]]]},"properties":{"fid":28,"id":"way/261581992","@id":"way/261581992","AREA":808}},
{"type":"Feature","geometry":{"type":"Polygon","coordinates":[[[35.5478608,33.8870379],[35.5478171,33.8870694],[35.5475348,33.8868223],[35.54772,33.8867485],[35.5479672,33.886967],[35.5481989,33.8867416],[35.5480131,33.886645],[35.5481294,33.8864947],[35.5484335,33.8866673],[35.5483713,33.886925],[35.5482549,33.8870134],[35.548331,33.8871432],[35.5482095,33.8872862],[35.5478973,33.8871131],[35.5478608,33.8870379]]]},"properties":{"fid":76,"id":"way/497658938","@id":"way/497658938","AREA":2835}},
{"type":"Feature","geometry":{"type":"Polygon","coordinates":[[[35.5468507,33.8859371],[35.54695,33.8858102],[35.5470963,33.8858892],[35.546997,33.886016],[35.5468507,33.8859371]]]},"properties":{"fid":77,"id":"way/497660592","@id":"way/497660592","AREA":271}},
{"type":"Feature","geometry":{"type":"Polygon","coordinates":[[[35.5470227,33.8856232],[35.5471143,33.8855076],[35.5472968,33.8856199],[35.5472215,33.8857411],[35.5470227,33.8856232]]]},"properties":{"fid":78,"id":"way/497660593","@id":"way/497660593","AREA":330}},
{"type":"Feature","geometry":{"type":"Polygon","coordinates":[[[35.547739,33.8877002],[35.5477471,33.8874753],[35.5481145,33.8877736],[35.5479751,33.8878916],[35.547739,33.8877002]]]},"properties":{"fid":103,"id":"way/506657138","@id":"way/506657138","AREA":722}},
{"type":"Feature","geometry":{"type":"Polygon","coordinates":[[[35.547322,33.8858228],[35.5473973,33.8857311],[35.5476187,33.8858562],[35.5475434,33.885948],[35.547322,33.8858228]]]},"properties":{"fid":246,"id":"way/553325054","@id":"way/553325054","AREA":305}},
{"type":"Feature","geometry":{"type":"Polygon","coordinates":[[[35.5452849,33.8848811],[35.5452854,33.8849932],[35.5450414,33.8848612],[35.5451127,33.8847786],[35.5452849,33.8848811]]]},"properties":{"fid":247,"id":"way/553325057","@id":"way/553325057","AREA":294}},
{"type":"Feature","geometry":{"type":"Polygon","coordinates":[[[35.5459702,33.8852949],[35.5460499,33.8852077],[35.5462617,33.885341],[35.5461479,33.8854068],[35.5459702,33.8852949]]]},"properties":{"fid":264,"id":"way/555742915","@id":"way/555742915","AREA":291}},
{"type":"Feature","geometry":{"type":"Polygon","coordinates":[[[35.5466173,33.8854913],[35.5467354,33.8853626],[35.5469358,33.8854894],[35.5468177,33.8856181],[35.5466173,33.8854913]]]},"properties":{"fid":265,"id":"way/555742916","@id":"way/555742916","AREA":418}},
{"type":"Feature","geometry":{"type":"Polygon","coordinates":[[[35.537523,33.889882],[35.5374971,33.8897688],[35.5376504,33.8897447],[35.5376763,33.8898579],[35.537523,33.889882]]]},"properties":{"fid":529,"id":"way/616650898","@id":"way/616650898","AREA":184}},
{"type":"Feature","geometry":{"type":"Polygon","coordinates":[[[35.53903945427343,33.890049302201064],[35.5394009,33.8900103],[35.5394963,33.890032],[35.539531,33.8902426],[35.5390879,33.8902594],[35.53903945427343,33.890049302201064]]]},"properties":{"fid":530,"id":"way/616650900","@id":"way/616650900","AREA":1030}},
{"type":"Feature","geometry":{"type":"Polygon","coordinates":[[[35.5453564,33.8869623],[35.5455191,33.8867645],[35.545992,33.8870327],[35.5458265,33.8870797],[35.5455133,33.8869021],[35.5453564,33.8869623]]]},"properties":{"fid":1031,"id":"way/751378732","@id":"way/751378732","AREA":747}},
{"type":"Feature","geometry":{"type":"Polygon","coordinates":[[[35.5401305,33.8898369],[35.5404722,33.8897468],[35.5405072,33.8898383],[35.5401655,33.8899284],[35.5401305,33.8898369]]]},"properties":{"fid":1032,"id":"way/751378733","@id":"way/751378733","AREA":353}},
{"type":"Feature","geometry":{"type":"Polygon","coordinates":[[[35.54700927429064,33.88961878673093],[35.546836,33.8894836],[35.5468547,33.889223],[35.5469754,33.8892253],[35.5470103,33.88937],[35.54715055538849,33.88949844726546],[35.54700927429064,33.88961878673093]]]},"properties":{"fid":1060,"id":"way/796256661","@id":"way/796256661","AREA":711}},
{"type":"Feature","geometry":{"type":"Polygon","coordinates":[[[35.5430492,33.8863775],[35.5430913,33.886251],[35.5432279,33.8862823],[35.5431858,33.8864088],[35.5430492,33.8863775]]]},"properties":{"fid":1066,"id":"way/814610907","@id":"way/814610907","AREA":191}},
{"type":"Feature","geometry":{"type":"Polygon","coordinates":[[[35.5432433,33.8868134],[35.5431641,33.8866256],[35.5433671,33.8865667],[35.5434462,33.8867544],[35.5432433,33.8868134]]]},"properties":{"fid":1067,"id":"way/814610908","@id":"way/814610908","AREA":439}},
{"type":"Feature","geometry":{"type":"Polygon","coordinates":[[[35.5370497,33.8899637],[35.5370225,33.8898475],[35.5371688,33.8898239],[35.537196,33.8899401],[35.5370497,33.8899637]]]},"properties":{"fid":1070,"id":"way/834690053","@id":"way/834690053","AREA":181}},
{"type":"Feature","geometry":{"type":"Polygon","coordinates":[[[35.5372345,33.8899291],[35.5372104,33.8898269],[35.537424,33.8897923],[35.537448,33.8898945],[35.5372345,33.8899291]]]},"properties":{"fid":1071,"id":"way/834690054","@id":"way/834690054","AREA":232}},
{"type":"Feature","geometry":null,"properties":{"fid":1072,"id":"way/834690055","@id":"way/834690055","AREA":182}},
{"type":"Feature","geometry":{"type":"Polygon","coordinates":[[[35.5372895,33.8901179],[35.5372993,33.8900254],[35.5375334,33.8900425],[35.5375236,33.890135],[35.5372895,33.8901179]]]},"properties":{"fid":1073,"id":"way/834690056","@id":"way/834690056","AREA":258}},
{"type":"Feature","geometry":{"type":"Polygon","coordinates":[[[35.537573,33.8901433],[35.5375813,33.8900337],[35.5377232,33.8900412],[35.5377148,33.8901508],[35.537573,33.8901433]]]},"properties":{"fid":1074,"id":"way/834690057","@id":"way/834690057","AREA":160}},
{"type":"Feature","geometry":{"type":"Polygon","coordinates":[[[35.5378236,33.8886028],[35.5378062,33.8884419],[35.537952,33.8884446],[35.5379477,33.8886051],[35.5378236,33.8886028]]]},"properties":{"fid":1079,"id":"way/834690063","@id":"way/834690063","AREA":232}},
{"type":"Feature","geometry":{"type":"Polygon","coordinates":[[[35.53825087714994,33.88854204433937],[35.53823317714995,33.888344244339365],[35.538428077149945,33.88833714433937],[35.538458577149946,33.88854954433937],[35.53825087714994,33.88854204433937]]]},"properties":{"fid":2113,"id":"way/836222017","@id":"way/836222017","AREA":438}},
{"type":"Feature","geometry":null,"properties":{"fid":2114,"id":"way/836222018","@id":"way/836222018","AREA":110}},
{"type":"Feature","geometry":null,"properties":{"fid":2115,"id":"way/836222019","@id":"way/836222019","AREA":83}},
{"type":"Feature","geometry":null,"properties":{"fid":2116,"id":"way/836222020","@id":"way/836222020","AREA":26}},
{"type":"Feature","geometry":null,"properties":{"fid":2117,"id":"way/836222021","@id":"way/836222021","AREA":36}},
{"type":"Feature","geometry":null,"properties":{"fid":2118,"id":"way/836222022","@id":"way/836222022","AREA":28}},
{"type":"Feature","geometry":null,"properties":{"fid":2119,"id":"way/836222023","@id":"way/836222023","AREA":25}},
{"type":"Feature","geometry":null,"properties":{"fid":2120,"id":"way/836222024","@id":"way/836222024","AREA":44}},
{"type":"Feature","geometry":null,"properties":{"fid":2121,"id":"way/836222025","@id":"way/836222025","AREA":39}},
{"type":"Feature","geometry":null,"properties":{"fid":2133,"id":"way/836222634","@id":"way/836222634","AREA":38}},
{"type":"Feature","geometry":null,"properties":{"fid":2134,"id":"way/836222635","@id":"way/836222635","AREA":45}},
{"type":"Feature","geometry":null,"properties":{"fid":2135,"id":"way/836222636","@id":"way/836222636","AREA":56}},
{"type":"Feature","geometry":null,"properties":{"fid":2136,"id":"way/836222637","@id":"way/836222637","AREA":17}},
{"type":"Feature","geometry":null,"properties":{"fid":2137,"id":"way/836222638","@id":"way/836222638","AREA":28}},
{"type":"Feature","geometry":null,"properties":{"fid":2138,"id":"way/836222639","@id":"way/836222639","AREA":17}},
{"type":"Feature","geometry":null,"properties":{"fid":2139,"id":"way/836222640","@id":"way/836222640","AREA":188}},
{"type":"Feature","geometry":{"type":"Polygon","coordinates":[[[35.5475496,33.888382],[35.5476195,33.8884319],[35.5472428,33.8888174],[35.5471666,33.8887657],[35.5475496,33.888382]]]},"properties":{"fid":2496,"id":"way/836402630","@id":"way/836402630","AREA":486}},
{"type":"Feature","geometry":null,"properties":{"fid":2497,"id":"way/836402631","@id":"way/836402631","AREA":117}},
{"type":"Feature","geometry":null,"properties":{"fid":2498,"id":"way/836402632","@id":"way/836402632","AREA":45}},
{"type":"Feature","geometry":null,"properties":{"fid":2499,"id":"way/836402633","@id":"way/836402633","AREA":77}},
{"type":"Feature","geometry":{"type":"Polygon","coordinates":[[[35.5469704,33.8887188],[35.5468635,33.8888145],[35.5467286,33.8887106],[35.5468356,33.888615],[35.5469704,33.8887188]]]},"properties":{"fid":2500,"id":"way/836402634","@id":"way/836402634","AREA":246}},
{"type":"Feature","geometry":{"type":"Polygon","coordinates":[[[35.5479018,33.8883136],[35.5478801,33.888459],[35.5476475,33.8884351],[35.547651,33.8882878],[35.5479018,33.8883136]]]},"properties":{"fid":2501,"id":"way/836402637","@id":"way/836402637","AREA":392}},
{"type":"Feature","geometry":null,"properties":{"fid":2502,"id":"way/836402638","@id":"way/836402638","AREA":23}},
{"type":"Feature","geometry":null,"properties":{"fid":2503,"id":"way/836403171","@id":"way/836403171","AREA":26}},
{"type":"Feature","geometry":null,"properties":{"fid":2504,"id":"way/836403292","@id":"way/836403292","AREA":72}},
{"type":"Feature","geometry":{"type":"Polygon","coordinates":[[[35.536422,33.8896736],[35.5364782,33.8895278],[35.5367772,33.8895794],[35.5367466,33.8896646],[35.536422,33.8896736]]]},"properties":{"fid":2704,"id":"way/836500286","@id":"way/836500286","AREA":450}},
{"type":"Feature","geometry":{"type":"Polygon","coordinates":[[[35.5364072,33.8895161],[35.5364214,33.8894123],[35.5365851,33.8894277],[35.5365753,33.889532],[35.5364072,33.8895161]]]},"properties":{"fid":2705,"id":"way/836500287","@id":"way/836500287","AREA":212}},
{"type":"Feature","geometry":null,"properties":{"fid":2706,"id":"way/836500288","@id":"way/836500288","AREA":89}},
{"type":"Feature","geometry":null,"properties":{"fid":2707,"id":"way/836500290","@id":"way/836500290","AREA":35}},
{"type":"Feature","geometry":null,"properties":{"fid":2712,"id":"way/836503511","@id":"way/836503511","AREA":117}},
{"type":"Feature","geometry":{"type":"Polygon","coordinates":[[[35.5368474,33.8900309],[35.5366852,33.8900676],[35.5363687,33.8899574],[35.5368112,33.8898672],[35.5368474,33.8900309]]]},"properties":{"fid":2713,"id":"way/836503512","@id":"way/836503512","AREA":540}},
{"type":"Feature","geometry":null,"properties":{"fid":2747,"id":"way/836649220","@id":"way/836649220","AREA":154}},
{"type":"Feature","geometry":null,"properties":{"fid":2781,"id":"way/836672352","@id":"way/836672352","AREA":32}},
{"type":"Feature","geometry":null,"properties":{"fid":2782,"id":"way/836672353","@id":"way/836672353","AREA":46}},
{"type":"Feature","geometry":null,"properties":{"fid":2783,"id":"way/836672354","@id":"way/836672354","AREA":88}},
{"type":"Feature","geometry":null,"properties":{"fid":2784,"id":"way/836672355","@id":"way/836672355","AREA":21}},
{"type":"Feature","geometry":{"type":"Polygon","coordinates":[[[35.5441256,33.887599],[35.5443259,33.8875403],[35.5444592,33.8878152],[35.5442606,33.8878779],[35.5441256,33.887599]]]},"properties":{"fid":2880,"id":"way/836716248","@id":"way/836716248","AREA":565}},
{"type":"Feature","geometry":{"type":"Polygon","coordinates":[[[35.5445901,33.8874448],[35.5447201,33.8877075],[35.5445177,33.887757],[35.5444009,33.8875208],[35.5445901,33.8874448]]]},"properties":{"fid":2881,"id":"way/836716249","@id":"way/836716249","AREA":533}},
{"type":"Feature","geometry":{"type":"Polygon","coordinates":[[[35.5447903,33.887622],[35.5447151,33.8874531],[35.5450348,33.8873533],[35.5451111,33.887522],[35.5447903,33.887622]]]},"properties":{"fid":2882,"id":"way/836716250","@id":"way/836716250","AREA":516}},
{"type":"Feature","geometry":null,"properties":{"fid":2883,"id":"way/836716252","@id":"way/836716252","AREA":95}},
{"type":"Feature","geometry":null,"properties":{"fid":2930,"id":"way/836741587","@id":"way/836741587","AREA":77}},
{"type":"Feature","geometry":{"type":"Polygon","coordinates":[[[35.5402417,33.8897017],[35.5401941,33.8895653],[35.5408114,33.889417],[35.5409201,33.8897289],[35.5407947,33.889759],[35.5407119,33.8895213],[35.540315,33.8896167],[35.5402417,33.8897017]]]},"properties":{"fid":2931,"id":"way/836741588","@id":"way/836741588","AREA":906}},
{"type":"Feature","geometry":null,"properties":{"fid":2932,"id":"way/836741589","@id":"way/836741589","AREA":31}},
{"type":"Feature","geometry":null,"properties":{"fid":2933,"id":"way/836741590","@id":"way/836741590","AREA":39}},
{"type":"Feature","geometry":null,"properties":{"fid":2934,"id":"way/836741591","@id":"way/836741591","AREA":56}},
{"type":"Feature","geometry":null,"properties":{"fid":2935,"id":"way/836741592","@id":"way/836741592","AREA":53}},
{"type":"Feature","geometry":null,"properties":{"fid":2936,"id":"way/836741593","@id":"way/836741593","AREA":29}},
{"type":"Feature","geometry":null,"properties":{"fid":2937,"id":"way/836741594","@id":"way/836741594","AREA":252}},
{"type":"Feature","geometry":null,"properties":{"fid":2938,"id":"way/836741595","@id":"way/836741595","AREA":158}},
{"type":"Feature","geometry":null,"properties":{"fid":2939,"id":"way/836741596","@id":"way/836741596","AREA":144}},
{"type":"Feature","geometry":null,"properties":{"fid":2940,"id":"way/836741597","@id":"way/836741597","AREA":155}},
{"type":"Feature","geometry":null,"properties":{"fid":2941,"id":"way/836741598","@id":"way/836741598","AREA":157}},
{"type":"Feature","geometry":null,"properties":{"fid":2942,"id":"way/836741599","@id":"way/836741599","AREA":104}},
{"type":"Feature","geometry":null,"properties":{"fid":2943,"id":"way/836741600","@id":"way/836741600","AREA":43}},
{"type":"Feature","geometry":null,"properties":{"fid":2944,"id":"way/836741601","@id":"way/836741601","AREA":42}},
{"type":"Feature","geometry":null,"properties":{"fid":2945,"id":"way/836741602","@id":"way/836741602","AREA":45}},
{"type":"Feature","geometry":null,"properties":{"fid":2946,"id":"way/836741603","@id":"way/836741603","AREA":66}},
{"type":"Feature","geometry":null,"properties":{"fid":2947,"id":"way/836741604","@id":"way/836741604","AREA":26}},
{"type":"Feature","geometry":null,"properties":{"fid":2948,"id":"way/836741605","@id":"way/836741605","AREA":86}},
{"type":"Feature","geometry":null,"properties":{"fid":2949,"id":"way/836742949","@id":"way/836742949","AREA":113}},
{"type":"Feature","geometry":null,"properties":{"fid":2950,"id":"way/836742950","@id":"way/836742950","AREA":32}},
{"type":"Feature","geometry":null,"properties":{"fid":2951,"id":"way/836742951","@id":"way/836742951","AREA":44}},
{"type":"Feature","geometry":null,"properties":{"fid":2952,"id":"way/836742952","@id":"way/836742952","AREA":6}},
{"type":"Feature","geometry":null,"properties":{"fid":2953,"id":"way/836742953","@id":"way/836742953","AREA":6}},
{"type":"Feature","geometry":null,"properties":{"fid":2954,"id":"way/836753404","@id":"way/836753404","AREA":45}},
{"type":"Feature","geometry":null,"properties":{"fid":2955,"id":"way/836753405","@id":"way/836753405","AREA":31}},
{"type":"Feature","geometry":null,"properties":{"fid":2956,"id":"way/836753406","@id":"way/836753406","AREA":101}},
{"type":"Feature","geometry":null,"properties":{"fid":2957,"id":"way/836753407","@id":"way/836753407","AREA":40}},
{"type":"Feature","geometry":null,"properties":{"fid":2958,"id":"way/836753408","@id":"way/836753408","AREA":74}},
{"type":"Feature","geometry":null,"properties":{"fid":2959,"id":"way/836753409","@id":"way/836753409","AREA":23}},
{"type":"Feature","geometry":null,"properties":{"fid":2960,"id":"way/836753410","@id":"way/836753410","AREA":33}},
{"type":"Feature","geometry":null,"properties":{"fid":2961,"id":"way/836753411","@id":"way/836753411","AREA":35}},
{"type":"Feature","geometry":null,"properties":{"fid":2962,"id":"way/836753412","@id":"way/836753412","AREA":102}},
{"type":"Feature","geometry":null,"properties":{"fid":2963,"id":"way/836753413","@id":"way/836753413","AREA":69}},
{"type":"Feature","geometry":null,"properties":{"fid":2964,"id":"way/836753414","@id":"way/836753414","AREA":30}},
{"type":"Feature","geometry":null,"properties":{"fid":2965,"id":"way/836753415","@id":"way/836753415","AREA":48}},
{"type":"Feature","geometry":null,"properties":{"fid":2966,"id":"way/836753416","@id":"way/836753416","AREA":51}},
{"type":"Feature","geometry":null,"properties":{"fid":2967,"id":"way/836753417","@id":"way/836753417","AREA":34}},
{"type":"Feature","geometry":null,"properties":{"fid":2968,"id":"way/836753418","@id":"way/836753418","AREA":131}},
{"type":"Feature","geometry":null,"properties":{"fid":2969,"id":"way/836753419","@id":"way/836753419","AREA":106}},
{"type":"Feature","geometry":null,"properties":{"fid":2970,"id":"way/836754653","@id":"way/836754653","AREA":120}},
{"type":"Feature","geometry":null,"properties":{"fid":2971,"id":"way/836754654","@id":"way/836754654","AREA":27}},
{"type":"Feature","geometry":null,"properties":{"fid":2972,"id":"way/836754655","@id":"way/836754655","AREA":27}},
{"type":"Feature","geometry":null,"properties":{"fid":2997,"id":"way/836763352","@id":"way/836763352","AREA":47}},
{"type":"Feature","geometry":null,"properties":{"fid":2998,"id":"way/836763355","@id":"way/836763355","AREA":16}},
{"type":"Feature","geometry":null,"properties":{"fid":2999,"id":"way/836763356","@id":"way/836763356","AREA":41}},
{"type":"Feature","geometry":null,"properties":{"fid":3000,"id":"way/836763357","@id":"way/836763357","AREA":27}},
{"type":"Feature","geometry":null,"properties":{"fid":3001,"id":"way/836763358","@id":"way/836763358","AREA":29}},
{"type":"Feature","geometry":null,"properties":{"fid":3002,"id":"way/836763359","@id":"way/836763359","AREA":14}},
{"type":"Feature","geometry":null,"properties":{"fid":3003,"id":"way/836763360","@id":"way/836763360","AREA":82}},
{"type":"Feature","geometry":null,"properties":{"fid":3004,"id":"way/836763362","@id":"way/836763362","AREA":91}},
{"type":"Feature","geometry":null,"properties":{"fid":3005,"id":"way/836763365","@id":"way/836763365","AREA":15}},
{"type":"Feature","geometry":null,"properties":{"fid":3006,"id":"way/836763366","@id":"way/836763366","AREA":13}},
{"type":"Feature","geometry":null,"properties":{"fid":3007,"id":"way/836763367","@id":"way/836763367","AREA":55}},
{"type":"Feature","geometry":null,"properties":{"fid":3008,"id":"way/836763368","@id":"way/836763368","AREA":75}},
{"type":"Feature","geometry":null,"properties":{"fid":3009,"id":"way/836763369","@id":"way/836763369","AREA":28}},
{"type":"Feature","geometry":null,"properties":{"fid":3010,"id":"way/836763374","@id":"way/836763374","AREA":71}},
{"type":"Feature","geometry":null,"properties":{"fid":3011,"id":"way/836763379","@id":"way/836763379","AREA":47}},
{"type":"Feature","geometry":{"type":"Polygon","coordinates":[[[35.5389836,33.8887977],[35.5389635,33.88867],[35.5391132,33.8886671],[35.5391365,33.8887949],[35.5389836,33.8887977]]]},"properties":{"fid":3012,"id":"way/836763380","@id":"way/836763380","AREA":209}},
{"type":"Feature","geometry":null,"properties":{"fid":3013,"id":"way/836763381","@id":"way/836763381","AREA":32}},
{"type":"Feature","geometry":null,"properties":{"fid":3014,"id":"way/836763382","@id":"way/836763382","AREA":28}},
{"type":"Feature","geometry":null,"properties":{"fid":3015,"id":"way/836763383","@id":"way/836763383","AREA":47}},
{"type":"Feature","geometry":null,"properties":{"fid":3016,"id":"way/836763384","@id":"way/836763384","AREA":25}},
{"type":"Feature","geometry":null,"properties":{"fid":3017,"id":"way/836763385","@id":"way/836763385","AREA":90}},
{"type":"Feature","geometry":null,"properties":{"fid":3018,"id":"way/836763386","@id":"way/836763386","AREA":53}},
{"type":"Feature","geometry":null,"properties":{"fid":3019,"id":"way/836763387","@id":"way/836763387","AREA":18}},
{"type":"Feature","geometry":null,"properties":{"fid":3020,"id":"way/836763388","@id":"way/836763388","AREA":9}},
{"type":"Feature","geometry":null,"properties":{"fid":3021,"id":"way/836763389","@id":"way/836763389","AREA":131}},
{"type":"Feature","geometry":null,"properties":{"fid":3022,"id":"way/836763390","@id":"way/836763390","AREA":83}},
{"type":"Feature","geometry":null,"properties":{"fid":3023,"id":"way/836763391","@id":"way/836763391","AREA":50}},
{"type":"Feature","geometry":null,"properties":{"fid":3024,"id":"way/836763392","@id":"way/836763392","AREA":94}},
{"type":"Feature","geometry":null,"properties":{"fid":3025,"id":"way/836763393","@id":"way/836763393","AREA":64}},
{"type":"Feature","geometry":null,"properties":{"fid":3026,"id":"way/836763394","@id":"way/836763394","AREA":19}},
{"type":"Feature","geometry":null,"properties":{"fid":3027,"id":"way/836763395","@id":"way/836763395","AREA":27}},
{"type":"Feature","geometry":null,"properties":{"fid":3028,"id":"way/836763396","@id":"way/836763396","AREA":24}},
{"type":"Feature","geometry":null,"properties":{"fid":3029,"id":"way/836763397","@id":"way/836763397","AREA":26}},
{"type":"Feature","geometry":null,"properties":{"fid":3030,"id":"way/836763398","@id":"way/836763398","AREA":6}},
{"type":"Feature","geometry":null,"properties":{"fid":3031,"id":"way/836763399","@id":"way/836763399","AREA":24}},
{"type":"Feature","geometry":null,"properties":{"fid":3032,"id":"way/836763400","@id":"way/836763400","AREA":11}},
{"type":"Feature","geometry":null,"properties":{"fid":3033,"id":"way/836763401","@id":"way/836763401","AREA":7}},
{"type":"Feature","geometry":null,"properties":{"fid":3034,"id":"way/836763402","@id":"way/836763402","AREA":44}},
{"type":"Feature","geometry":null,"properties":{"fid":3039,"id":"way/836765670","@id":"way/836765670","AREA":109}},
{"type":"Feature","geometry":{"type":"Polygon","coordinates":[[[35.5461178,33.885014],[35.5460168,33.8851227],[35.5458144,33.884993],[35.546005,33.8849417],[35.5461178,33.885014]]]},"properties":{"fid":3040,"id":"way/836765671","@id":"way/836765671","AREA":280}},
{"type":"Feature","geometry":null,"properties":{"fid":3041,"id":"way/836765672","@id":"way/836765672","AREA":70}},
{"type":"Feature","geometry":null,"properties":{"fid":3042,"id":"way/836765673","@id":"way/836765673","AREA":23}},
{"type":"Feature","geometry":{"type":"Polygon","coordinates":[[[35.5462555,33.8851361],[35.54618,33.8852222],[35.5460252,33.8851288],[35.5461007,33.8850426],[35.5462555,33.8851361]]]},"properties":{"fid":3043,"id":"way/836765674","@id":"way/836765674","AREA":209}},
{"type":"Feature","geometry":null,"properties":{"fid":3044,"id":"way/836765675","@id":"way/836765675","AREA":6}},
{"type":"Feature","geometry":null,"properties":{"fid":3045,"id":"way/836765676","@id":"way/836765676","AREA":7}},
{"type":"Feature","geometry":null,"properties":{"fid":3046,"id":"way/836765677","@id":"way/836765677","AREA":16}},
{"type":"Feature","geometry":null,"properties":{"fid":3047,"id":"way/836765678","@id":"way/836765678","AREA":5}},
{"type":"Feature","geometry":{"type":"Polygon","coordinates":[[[35.5471306,33.8866588],[35.5468994,33.8867569],[35.5469283,33.8865206],[35.5471306,33.8866588]]]},"properties":{"fid":3049,"id":"way/836768408","@id":"way/836768408","AREA":369}},
{"type":"Feature","geometry":null,"properties":{"fid":3050,"id":"way/836768409","@id":"way/836768409","AREA":15}},
{"type":"Feature","geometry":null,"properties":{"fid":3051,"id":"way/836768410","@id":"way/836768410","AREA":16}},
{"type":"Feature","geometry":null,"properties":{"fid":3052,"id":"way/836768411","@id":"way/836768411","AREA":11}},
{"type":"Feature","geometry":null,"properties":{"fid":3053,"id":"way/836768413","@id":"way/836768413","AREA":7}},
{"type":"Feature","geometry":null,"properties":{"fid":3054,"id":"way/836768414","@id":"way/836768414","AREA":52}},
{"type":"Feature","geometry":{"type":"Polygon","coordinates":[[[35.5473148,33.887024],[35.5472474,33.8870851],[35.5471068,33.8869781],[35.5471743,33.886917],[35.5473148,33.887024]]]},"properties":{"fid":3055,"id":"way/836768415","@id":"way/836768415","AREA":162}},
{"type":"Feature","geometry":null,"properties":{"fid":3056,"id":"way/836768416","@id":"way/836768416","AREA":19}},
{"type":"Feature","geometry":null,"properties":{"fid":3057,"id":"way/836768417","@id":"way/836768417","AREA":14}},
{"type":"Feature","geometry":null,"properties":{"fid":3058,"id":"way/836768418","@id":"way/836768418","AREA":8}},
{"type":"Feature","geometry":null,"properties":{"fid":3059,"id":"way/836768419","@id":"way/836768419","AREA":21}},
{"type":"Feature","geometry":null,"properties":{"fid":3060,"id":"way/836768420","@id":"way/836768420","AREA":95}},
{"type":"Feature","geometry":null,"properties":{"fid":3063,"id":"way/836784922","@id":"way/836784922","AREA":158}},
{"type":"Feature","geometry":null,"properties":{"fid":3064,"id":"way/836784923","@id":"way/836784923","AREA":75}},
{"type":"Feature","geometry":null,"properties":{"fid":3065,"id":"way/836784924","@id":"way/836784924","AREA":113}},
{"type":"Feature","geometry":null,"properties":{"fid":3066,"id":"way/836784925","@id":"way/836784925","AREA":112}},
{"type":"Feature","geometry":null,"properties":{"fid":3067,"id":"way/836784926","@id":"way/836784926","AREA":49}},
{"type":"Feature","geometry":null,"properties":{"fid":3068,"id":"way/836784927","@id":"way/836784927","AREA":71}},
{"type":"Feature","geometry":null,"properties":{"fid":3069,"id":"way/836784929","@id":"way/836784929","AREA":67}},
{"type":"Feature","geometry":null,"properties":{"fid":3070,"id":"way/836784930","@id":"way/836784930","AREA":51}},
{"type":"Feature","geometry":null,"properties":{"fid":3078,"id":"way/836789684","@id":"way/836789684","AREA":68}},
{"type":"Feature","geometry":null,"properties":{"fid":3079,"id":"way/836789686","@id":"way/836789686","AREA":11}},
{"type":"Feature","geometry":null,"properties":{"fid":3080,"id":"way/836789688","@id":"way/836789688","AREA":86}},
{"type":"Feature","geometry":null,"properties":{"fid":3081,"id":"way/836789690","@id":"way/836789690","AREA":71}},
{"type":"Feature","geometry":null,"properties":{"fid":3082,"id":"way/836789691","@id":"way/836789691","AREA":91}},
{"type":"Feature","geometry":null,"properties":{"fid":3083,"id":"way/836789692","@id":"way/836789692","AREA":77}},
{"type":"Feature","geometry":null,"properties":{"fid":3092,"id":"way/836789701","@id":"way/836789701","AREA":102}},
{"type":"Feature","geometry":null,"properties":{"fid":3093,"id":"way/836789702","@id":"way/836789702","AREA":28}},
{"type":"Feature","geometry":null,"properties":{"fid":3097,"id":"way/836789706","@id":"way/836789706","AREA":95}},
{"type":"Feature","geometry":null,"properties":{"fid":3098,"id":"way/836789707","@id":"way/836789707","AREA":81}},
{"type":"Feature","geometry":null,"properties":{"fid":3099,"id":"way/836789708","@id":"way/836789708","AREA":62}},
{"type":"Feature","geometry":null,"properties":{"fid":3100,"id":"way/836789709","@id":"way/836789709","AREA":40}},
{"type":"Feature","geometry":{"type":"Polygon","coordinates":[[[35.54139149128344,33.889769395987976],[35.541606308928394,33.88967869220928],[35.5416345,33.8897586],[35.54139149128344,33.889769395987976]]]},"properties":{"fid":3210,"id":"way/836866403","@id":"way/836866403","AREA":177}},
{"type":"Feature","geometry":{"type":"Polygon","coordinates":[[[35.5451326,33.8881376],[35.545246,33.8880815],[35.5453288,33.8881911],[35.5451412,33.8882791],[35.5451326,33.8881376]]]},"properties":{"fid":3224,"id":"way/836873068","@id":"way/836873068","AREA":214}},
{"type":"Feature","geometry":{"type":"Polygon","coordinates":[[[35.5451458,33.8879598],[35.5452424,33.8880777],[35.5450572,33.8881619],[35.5449588,33.888044],[35.5451458,33.8879598]]]},"properties":{"fid":3225,"id":"way/836873069","@id":"way/836873069","AREA":235}},
{"type":"Feature","geometry":{"type":"Polygon","coordinates":[[[35.544948,33.8878874],[35.5450571,33.8878333],[35.5451413,33.8879555],[35.5449608,33.8880331],[35.544948,33.8878874]]]},"properties":{"fid":3226,"id":"way/836873070","@id":"way/836873070","AREA":218}},
{"type":"Feature","geometry":null,"properties":{"fid":3227,"id":"way/836873071","@id":"way/836873071","AREA":80}},
{"type":"Feature","geometry":{"type":"Polygon","coordinates":[[[35.5449621,33.8882375],[35.5448474,33.8882563],[35.5447918,33.8881088],[35.5449027,33.8880799],[35.5449621,33.8882375]]]},"properties":{"fid":3228,"id":"way/836873072","@id":"way/836873072","AREA":189}},
{"type":"Feature","geometry":{"type":"Polygon","coordinates":[[[35.5447636,33.8881129],[35.544819,33.8882674],[35.5447231,33.8882911],[35.5446678,33.8881365],[35.5447636,33.8881129]]]},"properties":{"fid":3229,"id":"way/836873073","@id":"way/836873073","AREA":165}},
{"type":"Feature","geometry":null,"properties":{"fid":3230,"id":"way/836873074","@id":"way/836873074","AREA":87}},
{"type":"Feature","geometry":null,"properties":{"fid":3231,"id":"way/836873075","@id":"way/836873075","AREA":86}},
{"type":"Feature","geometry":null,"properties":{"fid":3232,"id":"way/836873076","@id":"way/836873076","AREA":50}},
{"type":"Feature","geometry":null,"properties":{"fid":3233,"id":"way/836873077","@id":"way/836873077","AREA":42}},
{"type":"Feature","geometry":null,"properties":{"fid":3234,"id":"way/836873078","@id":"way/836873078","AREA":178}},
{"type":"Feature","geometry":null,"properties":{"fid":3235,"id":"way/836873079","@id":"way/836873079","AREA":202}},
{"type":"Feature","geometry":null,"properties":{"fid":3236,"id":"way/836873080","@id":"way/836873080","AREA":195}},
{"type":"Feature","geometry":null,"properties":{"fid":3237,"id":"way/836873081","@id":"way/836873081","AREA":183}},
{"type":"Feature","geometry":null,"properties":{"fid":3238,"id":"way/836873082","@id":"way/836873082","AREA":114}},
{"type":"Feature","geometry":null,"properties":{"fid":3239,"id":"way/836873083","@id":"way/836873083","AREA":75}},
{"type":"Feature","geometry":null,"properties":{"fid":3240,"id":"way/836873084","@id":"way/836873084","AREA":32}},
{"type":"Feature","geometry":null,"properties":{"fid":3241,"id":"way/836873085","@id":"way/836873085","AREA":36}},
{"type":"Feature","geometry":null,"properties":{"fid":3242,"id":"way/836873086","@id":"way/836873086","AREA":23}},
{"type":"Feature","geometry":{"type":"Polygon","coordinates":[[[35.5462714,33.8883832],[35.5463632,33.888508],[35.5461851,33.8886049],[35.5460969,33.8884851],[35.5462714,33.8883832]]]},"properties":{"fid":3243,"id":"way/836873087","@id":"way/836873087","AREA":233}},
{"type":"Feature","geometry":null,"properties":{"fid":3244,"id":"way/836873088","@id":"way/836873088","AREA":238}},
{"type":"Feature","geometry":{"type":"Polygon","coordinates":[[[35.5457436,33.8884972],[35.545847,33.8884444],[35.5459413,33.8885762],[35.5457728,33.8886623],[35.5457436,33.8884972]]]},"properties":{"fid":3245,"id":"way/836873089","@id":"way/836873089","AREA":239}},
{"type":"Feature","geometry":null,"properties":{"fid":3246,"id":"way/836873090","@id":"way/836873090","AREA":187}},
{"type":"Feature","geometry":null,"properties":{"fid":3247,"id":"way/836873091","@id":"way/836873091","AREA":204}},
{"type":"Feature","geometry":{"type":"Polygon","coordinates":[[[35.5455889,33.8880881],[35.545673,33.8882002],[35.5455004,33.8882961],[35.5454141,33.8881809],[35.5455889,33.8880881]]]},"properties":{"fid":3248,"id":"way/836873092","@id":"way/836873092","AREA":205}},
{"type":"Feature","geometry":null,"properties":{"fid":3249,"id":"way/836873093","@id":"way/836873093","AREA":198}},
{"type":"Feature","geometry":null,"properties":{"fid":3250,"id":"way/836873094","@id":"way/836873094","AREA":231}},
{"type":"Feature","geometry":{"type":"Polygon","coordinates":[[[35.545327,33.8877053],[35.5453515,33.887858],[35.5451508,33.8877978],[35.545327,33.8877053]]]},"properties":{"fid":3251,"id":"way/836873095","@id":"way/836873095","AREA":224}},
{"type":"Feature","geometry":null,"properties":{"fid":3252,"id":"way/836873096","@id":"way/836873096","AREA":14}},
{"type":"Feature","geometry":{"type":"Polygon","coordinates":[[[35.5480069,33.8884878],[35.5479701,33.8887241],[35.5478285,33.8887088],[35.5478654,33.8884725],[35.5480069,33.8884878]]]},"properties":{"fid":3253,"id":"way/836879354","@id":"way/836879354","AREA":349}},
{"type":"Feature","geometry":null,"properties":{"fid":3254,"id":"way/836879355","@id":"way/836879355","AREA":53}},
{"type":"Feature","geometry":null,"properties":{"fid":3255,"id":"way/836879356","@id":"way/836879356","AREA":10}},
{"type":"Feature","geometry":null,"properties":{"fid":3256,"id":"way/836879357","@id":"way/836879357","AREA":21}},
{"type":"Feature","geometry":{"type":"Polygon","coordinates":[[[35.54807,33.8880299],[35.5481204,33.8881223],[35.5480982,33.8882859],[35.5479646,33.8882997],[35.54807,33.8880299]]]},"properties":{"fid":3257,"id":"way/836879358","@id":"way/836879358","AREA":320}},
{"type":"Feature","geometry":null,"properties":{"fid":3258,"id":"way/836879359","@id":"way/836879359","AREA":14}},
{"type":"Feature","geometry":null,"properties":{"fid":3259,"id":"way/836879360","@id":"way/836879360","AREA":37}},
{"type":"Feature","geometry":null,"properties":{"fid":3272,"id":"way/836879374","@id":"way/836879374","AREA":75}},
{"type":"Feature","geometry":null,"properties":{"fid":3275,"id":"way/836889456","@id":"way/836889456","AREA":78}},
{"type":"Feature","geometry":{"type":"Polygon","coordinates":[[[35.543258788824104,33.88863775759946],[35.5434555,33.888595],[35.5434835,33.8886776],[35.543285540606746,33.88872388127269],[35.543258788824104,33.88863775759946]]]},"properties":{"fid":3276,"id":"way/836889457","@id":"way/836889457","AREA":186}},
{"type":"Feature","geometry":null,"properties":{"fid":3277,"id":"way/836889458","@id":"way/836889458","AREA":79}},
{"type":"Feature","geometry":null,"properties":{"fid":3278,"id":"way/836889459","@id":"way/836889459","AREA":71}},
{"type":"Feature","geometry":null,"properties":{"fid":3279,"id":"way/836889460","@id":"way/836889460","AREA":92}},
{"type":"Feature","geometry":null,"properties":{"fid":3280,"id":"way/836889461","@id":"way/836889461","AREA":83}},
{"type":"Feature","geometry":null,"properties":{"fid":3281,"id":"way/836889462","@id":"way/836889462","AREA":85}},
{"type":"Feature","geometry":null,"properties":{"fid":3282,"id":"way/836889463","@id":"way/836889463","AREA":212}},
{"type":"Feature","geometry":null,"properties":{"fid":3283,"id":"way/836889464","@id":"way/836889464","AREA":40}},
{"type":"Feature","geometry":null,"properties":{"fid":3284,"id":"way/836889465","@id":"way/836889465","AREA":153}},
{"type":"Feature","geometry":null,"properties":{"fid":3285,"id":"way/836889466","@id":"way/836889466","AREA":70}},
{"type":"Feature","geometry":null,"properties":{"fid":3286,"id":"way/836889467","@id":"way/836889467","AREA":53}},
{"type":"Feature","geometry":null,"properties":{"fid":3287,"id":"way/836889468","@id":"way/836889468","AREA":44}},
{"type":"Feature","geometry":null,"properties":{"fid":3288,"id":"way/836889469","@id":"way/836889469","AREA":67}},
{"type":"Feature","geometry":null,"properties":{"fid":3289,"id":"way/836889470","@id":"way/836889470","AREA":20}},
{"type":"Feature","geometry":null,"properties":{"fid":3290,"id":"way/836889471","@id":"way/836889471","AREA":106}},
{"type":"Feature","geometry":null,"properties":{"fid":3291,"id":"way/836889472","@id":"way/836889472","AREA":73}},
{"type":"Feature","geometry":null,"properties":{"fid":3292,"id":"way/836889473","@id":"way/836889473","AREA":87}},
{"type":"Feature","geometry":null,"properties":{"fid":3293,"id":"way/836889474","@id":"way/836889474","AREA":97}},
{"type":"Feature","geometry":null,"properties":{"fid":3294,"id":"way/836889476","@id":"way/836889476","AREA":144}},
{"type":"Feature","geometry":null,"properties":{"fid":3295,"id":"way/836889477","@id":"way/836889477","AREA":72}},
{"type":"Feature","geometry":null,"properties":{"fid":3296,"id":"way/836889478","@id":"way/836889478","AREA":105}},
{"type":"Feature","geometry":null,"properties":{"fid":3297,"id":"way/836889479","@id":"way/836889479","AREA":83}},
{"type":"Feature","geometry":null,"properties":{"fid":3298,"id":"way/836889480","@id":"way/836889480","AREA":105}},
{"type":"Feature","geometry":null,"properties":{"fid":3299,"id":"way/836889481","@id":"way/836889481","AREA":72}},
{"type":"Feature","geometry":null,"properties":{"fid":3300,"id":"way/836889482","@id":"way/836889482","AREA":108}},
{"type":"Feature","geometry":null,"properties":{"fid":3301,"id":"way/836889483","@id":"way/836889483","AREA":50}},
{"type":"Feature","geometry":null,"properties":{"fid":3302,"id":"way/836889484","@id":"way/836889484","AREA":28}},
{"type":"Feature","geometry":null,"properties":{"fid":3303,"id":"way/836889485","@id":"way/836889485","AREA":29}},
{"type":"Feature","geometry":null,"properties":{"fid":3304,"id":"way/836889486","@id":"way/836889486","AREA":50}},
{"type":"Feature","geometry":null,"properties":{"fid":3305,"id":"way/836889487","@id":"way/836889487","AREA":71}},
{"type":"Feature","geometry":null,"properties":{"fid":3306,"id":"way/836889488","@id":"way/836889488","AREA":76}},
{"type":"Feature","geometry":null,"properties":{"fid":3307,"id":"way/836889489","@id":"way/836889489","AREA":74}},
{"type":"Feature","geometry":null,"properties":{"fid":3308,"id":"way/836889490","@id":"way/836889490","AREA":32}},
{"type":"Feature","geometry":null,"properties":{"fid":3309,"id":"way/836889491","@id":"way/836889491","AREA":84}},
{"type":"Feature","geometry":null,"properties":{"fid":3310,"id":"way/836889492","@id":"way/836889492","AREA":55}},
{"type":"Feature","geometry":null,"properties":{"fid":3311,"id":"way/836889493","@id":"way/836889493","AREA":12}},
{"type":"Feature","geometry":null,"properties":{"fid":3315,"id":"way/836891977","@id":"way/836891977","AREA":33}},
{"type":"Feature","geometry":null,"properties":{"fid":3316,"id":"way/836891978","@id":"way/836891978","AREA":74}},
{"type":"Feature","geometry":null,"properties":{"fid":3320,"id":"way/836891982","@id":"way/836891982","AREA":76}},
{"type":"Feature","geometry":null,"properties":{"fid":3321,"id":"way/836891983","@id":"way/836891983","AREA":63}},
{"type":"Feature","geometry":null,"properties":{"fid":3322,"id":"way/836891984","@id":"way/836891984","AREA":31}},
{"type":"Feature","geometry":null,"properties":{"fid":3328,"id":"way/836893896","@id":"way/836893896","AREA":75}},
{"type":"Feature","geometry":null,"properties":{"fid":3329,"id":"way/836893897","@id":"way/836893897","AREA":37}},
{"type":"Feature","geometry":null,"properties":{"fid":3330,"id":"way/836893898","@id":"way/836893898","AREA":92}},
{"type":"Feature","geometry":null,"properties":{"fid":3331,"id":"way/836893899","@id":"way/836893899","AREA":24}},
{"type":"Feature","geometry":null,"properties":{"fid":3332,"id":"way/836893900","@id":"way/836893900","AREA":55}},
{"type":"Feature","geometry":null,"properties":{"fid":3333,"id":"way/836893901","@id":"way/836893901","AREA":66}},
{"type":"Feature","geometry":null,"properties":{"fid":3334,"id":"way/836893902","@id":"way/836893902","AREA":88}},
{"type":"Feature","geometry":null,"properties":{"fid":3335,"id":"way/836893903","@id":"way/836893903","AREA":81}},
{"type":"Feature","geometry":null,"properties":{"fid":3336,"id":"way/836893904","@id":"way/836893904","AREA":50}},
{"type":"Feature","geometry":null,"properties":{"fid":3337,"id":"way/836893905","@id":"way/836893905","AREA":14}},
{"type":"Feature","geometry":null,"properties":{"fid":3338,"id":"way/836893906","@id":"way/836893906","AREA":21}},
{"type":"Feature","geometry":null,"properties":{"fid":3339,"id":"way/836904756","@id":"way/836904756","AREA":28}},
{"type":"Feature","geometry":{"type":"Polygon","coordinates":[[[35.5446728,33.8885428],[35.5448632,33.8885083],[35.5448844,33.8885888],[35.5446939,33.8886233],[35.5446728,33.8885428]]]},"properties":{"fid":3340,"id":"way/836904757","@id":"way/836904757","AREA":165}},
{"type":"Feature","geometry":null,"properties":{"fid":3341,"id":"way/836904758","@id":"way/836904758","AREA":64}},
{"type":"Feature","geometry":null,"properties":{"fid":3342,"id":"way/836904760","@id":"way/836904760","AREA":66}},
{"type":"Feature","geometry":null,"properties":{"fid":3343,"id":"way/836904762","@id":"way/836904762","AREA":28}},
{"type":"Feature","geometry":null,"properties":{"fid":3344,"id":"way/836904763","@id":"way/836904763","AREA":96}},
{"type":"Feature","geometry":null,"properties":{"fid":3345,"id":"way/836904764","@id":"way/836904764","AREA":76}},
{"type":"Feature","geometry":null,"properties":{"fid":3346,"id":"way/836904765","@id":"way/836904765","AREA":121}},
{"type":"Feature","geometry":null,"properties":{"fid":3347,"id":"way/836904766","@id":"way/836904766","AREA":47}},
{"type":"Feature","geometry":null,"properties":{"fid":3349,"id":"way/837021936","@id":"way/837021936","AREA":82}},
{"type":"Feature","geometry":null,"properties":{"fid":3350,"id":"way/837021937","@id":"way/837021937","AREA":60}},
{"type":"Feature","geometry":{"type":"Polygon","coordinates":[[[35.542198580115816,33.88939911993471],[35.5424627,33.8893337],[35.5424673,33.8894038],[35.54221848704983,33.88945651541014],[35.542198580115816,33.88939911993471]]]},"properties":{"fid":3351,"id":"way/837021938","@id":"way/837021938","AREA":193}},
{"type":"Feature","geometry":null,"properties":{"fid":3352,"id":"way/837021939","@id":"way/837021939","AREA":39}},
{"type":"Feature","geometry":null,"properties":{"fid":3353,"id":"way/837021940","@id":"way/837021940","AREA":79}},
{"type":"Feature","geometry":null,"properties":{"fid":3354,"id":"way/837021941","@id":"way/837021941","AREA":30}},
{"type":"Feature","geometry":null,"properties":{"fid":3355,"id":"way/837021942","@id":"way/837021942","AREA":37}},
{"type":"Feature","geometry":null,"properties":{"fid":3356,"id":"way/837021943","@id":"way/837021943","AREA":57}},
{"type":"Feature","geometry":null,"properties":{"fid":3357,"id":"way/837021944","@id":"way/837021944","AREA":106}},
{"type":"Feature","geometry":null,"properties":{"fid":3358,"id":"way/837021945","@id":"way/837021945","AREA":73}},
{"type":"Feature","geometry":null,"properties":{"fid":3359,"id":"way/837021946","@id":"way/837021946","AREA":48}},
{"type":"Feature","geometry":null,"properties":{"fid":3360,"id":"way/837021947","@id":"way/837021947","AREA":37}},
{"type":"Feature","geometry":null,"properties":{"fid":3361,"id":"way/837021948","@id":"way/837021948","AREA":99}},
{"type":"Feature","geometry":null,"properties":{"fid":3362,"id":"way/837021949","@id":"way/837021949","AREA":30}},
{"type":"Feature","geometry":null,"properties":{"fid":3363,"id":"way/837021950","@id":"way/837021950","AREA":32}},
{"type":"Feature","geometry":null,"properties":{"fid":3364,"id":"way/837021951","@id":"way/837021951","AREA":27}},
{"type":"Feature","geometry":null,"properties":{"fid":3365,"id":"way/837021952","@id":"way/837021952","AREA":19}},
{"type":"Feature","geometry":null,"properties":{"fid":3377,"id":"way/837025211","@id":"way/837025211","AREA":67}},
{"type":"Feature","geometry":null,"properties":{"fid":3379,"id":"way/837025213","@id":"way/837025213","AREA":48}},
{"type":"Feature","geometry":null,"properties":{"fid":3380,"id":"way/837025214","@id":"way/837025214","AREA":71}},
{"type":"Feature","geometry":null,"properties":{"fid":3381,"id":"way/837025215","@id":"way/837025215","AREA":22}},
{"type":"Feature","geometry":null,"properties":{"fid":3388,"id":"way/837027759","@id":"way/837027759","AREA":162}},
{"type":"Feature","geometry":null,"properties":{"fid":3389,"id":"way/837027760","@id":"way/837027760","AREA":141}},
{"type":"Feature","geometry":null,"properties":{"fid":3390,"id":"way/837027761","@id":"way/837027761","AREA":139}},
{"type":"Feature","geometry":null,"properties":{"fid":3391,"id":"way/837027762","@id":"way/837027762","AREA":138}},
{"type":"Feature","geometry":null,"properties":{"fid":3392,"id":"way/837027763","@id":"way/837027763","AREA":155}},
{"type":"Feature","geometry":null,"properties":{"fid":3393,"id":"way/837027764","@id":"way/837027764","AREA":91}},
{"type":"Feature","geometry":null,"properties":{"fid":3395,"id":"way/837027766","@id":"way/837027766","AREA":52}},
{"type":"Feature","geometry":null,"properties":{"fid":3396,"id":"way/837027767","@id":"way/837027767","AREA":137}},
{"type":"Feature","geometry":null,"properties":{"fid":3397,"id":"way/837027768","@id":"way/837027768","AREA":130}},
{"type":"Feature","geometry":null,"properties":{"fid":3398,"id":"way/837027769","@id":"way/837027769","AREA":112}},
{"type":"Feature","geometry":{"type":"Polygon","coordinates":[[[35.541554,33.8883816],[35.5416658,33.8885702],[35.5416452,33.8887],[35.5414359,33.8884595],[35.541554,33.8883816]]]},"properties":{"fid":3399,"id":"way/837029212","@id":"way/837029212","AREA":353}},
{"type":"Feature","geometry":null,"properties":{"fid":3400,"id":"way/837029213","@id":"way/837029213","AREA":64}},
{"type":"Feature","geometry":null,"properties":{"fid":3401,"id":"way/837029214","@id":"way/837029214","AREA":78}},
{"type":"Feature","geometry":null,"properties":{"fid":3402,"id":"way/837029217","@id":"way/837029217","AREA":43}},
{"type":"Feature","geometry":null,"properties":{"fid":3403,"id":"way/837029218","@id":"way/837029218","AREA":34}},
{"type":"Feature","geometry":null,"properties":{"fid":3404,"id":"way/837029219","@id":"way/837029219","AREA":47}},
{"type":"Feature","geometry":null,"properties":{"fid":3405,"id":"way/837029221","@id":"way/837029221","AREA":86}},
{"type":"Feature","geometry":null,"properties":{"fid":3406,"id":"way/837032459","@id":"way/837032459","AREA":79}},
{"type":"Feature","geometry":null,"properties":{"fid":3407,"id":"way/837032460","@id":"way/837032460","AREA":32}},
{"type":"Feature","geometry":null,"properties":{"fid":3408,"id":"way/837032461","@id":"way/837032461","AREA":36}},
{"type":"Feature","geometry":null,"properties":{"fid":3409,"id":"way/837032462","@id":"way/837032462","AREA":31}},
{"type":"Feature","geometry":null,"properties":{"fid":3410,"id":"way/837032463","@id":"way/837032463","AREA":87}},
{"type":"Feature","geometry":null,"properties":{"fid":3411,"id":"way/837032464","@id":"way/837032464","AREA":25}},
{"type":"Feature","geometry":null,"properties":{"fid":3412,"id":"way/837032465","@id":"way/837032465","AREA":72}},
{"type":"Feature","geometry":null,"properties":{"fid":3413,"id":"way/837032466","@id":"way/837032466","AREA":48}},
{"type":"Feature","geometry":null,"properties":{"fid":3414,"id":"way/837032467","@id":"way/837032467","AREA":30}},
{"type":"Feature","geometry":null,"properties":{"fid":3415,"id":"way/837032468","@id":"way/837032468","AREA":37}},
{"type":"Feature","geometry":null,"properties":{"fid":3416,"id":"way/837032469","@id":"way/837032469","AREA":8}},
{"type":"Feature","geometry":null,"properties":{"fid":3417,"id":"way/837032470","@id":"way/837032470","AREA":72}},
{"type":"Feature","geometry":null,"properties":{"fid":3418,"id":"way/837032471","@id":"way/837032471","AREA":35}},
{"type":"Feature","geometry":null,"properties":{"fid":3419,"id":"way/837032472","@id":"way/837032472","AREA":33}},
{"type":"Feature","geometry":null,"properties":{"fid":3420,"id":"way/837032473","@id":"way/837032473","AREA":22}},
{"type":"Feature","geometry":null,"properties":{"fid":3421,"id":"way/837032474","@id":"way/837032474","AREA":67}},
{"type":"Feature","geometry":null,"properties":{"fid":3422,"id":"way/837032475","@id":"way/837032475","AREA":54}},
{"type":"Feature","geometry":null,"properties":{"fid":3423,"id":"way/837032476","@id":"way/837032476","AREA":53}},
{"type":"Feature","geometry":null,"properties":{"fid":3424,"id":"way/837032477","@id":"way/837032477","AREA":48}},
{"type":"Feature","geometry":null,"properties":{"fid":3425,"id":"way/837032478","@id":"way/837032478","AREA":57}},
{"type":"Feature","geometry":null,"properties":{"fid":3426,"id":"way/837032479","@id":"way/837032479","AREA":80}},
{"type":"Feature","geometry":null,"properties":{"fid":3427,"id":"way/837035625","@id":"way/837035625","AREA":38}},
{"type":"Feature","geometry":null,"properties":{"fid":3428,"id":"way/837035626","@id":"way/837035626","AREA":71}},
{"type":"Feature","geometry":null,"properties":{"fid":3429,"id":"way/837035627","@id":"way/837035627","AREA":70}},
{"type":"Feature","geometry":null,"properties":{"fid":3430,"id":"way/837035628","@id":"way/837035628","AREA":22}},
{"type":"Feature","geometry":null,"properties":{"fid":3431,"id":"way/837035629","@id":"way/837035629","AREA":18}},
{"type":"Feature","geometry":null,"properties":{"fid":3432,"id":"way/837035630","@id":"way/837035630","AREA":21}},
{"type":"Feature","geometry":null,"properties":{"fid":3433,"id":"way/837035631","@id":"way/837035631","AREA":32}},
{"type":"Feature","geometry":null,"properties":{"fid":3434,"id":"way/837035632","@id":"way/837035632","AREA":37}},
{"type":"Feature","geometry":null,"properties":{"fid":3435,"id":"way/837035633","@id":"way/837035633","AREA":40}},
{"type":"Feature","geometry":null,"properties":{"fid":3436,"id":"way/837035634","@id":"way/837035634","AREA":54}},
{"type":"Feature","geometry":null,"properties":{"fid":3437,"id":"way/837035635","@id":"way/837035635","AREA":21}},
{"type":"Feature","geometry":null,"properties":{"fid":3438,"id":"way/837035636","@id":"way/837035636","AREA":23}},
{"type":"Feature","geometry":null,"properties":{"fid":3439,"id":"way/837035637","@id":"way/837035637","AREA":77}},
{"type":"Feature","geometry":null,"properties":{"fid":3440,"id":"way/837035638","@id":"way/837035638","AREA":30}},
{"type":"Feature","geometry":null,"properties":{"fid":3441,"id":"way/837035639","@id":"way/837035639","AREA":31}},
{"type":"Feature","geometry":null,"properties":{"fid":3442,"id":"way/837035640","@id":"way/837035640","AREA":31}},
{"type":"Feature","geometry":null,"properties":{"fid":3443,"id":"way/837035641","@id":"way/837035641","AREA":28}},
{"type":"Feature","geometry":null,"properties":{"fid":3444,"id":"way/837035642","@id":"way/837035642","AREA":33}},
{"type":"Feature","geometry":null,"properties":{"fid":3445,"id":"way/837035643","@id":"way/837035643","AREA":51}},
{"type":"Feature","geometry":null,"properties":{"fid":3446,"id":"way/837035644","@id":"way/837035644","AREA":34}},
{"type":"Feature","geometry":null,"properties":{"fid":3447,"id":"way/837035645","@id":"way/837035645","AREA":59}},
{"type":"Feature","geometry":{"type":"Polygon","coordinates":[[[35.5442648,33.8874485],[35.5442915,33.8875214],[35.5438339,33.8876372],[35.5438071,33.8875643],[35.5442648,33.8874485]]]},"properties":{"fid":3448,"id":"way/837044608","@id":"way/837044608","AREA":374}},
{"type":"Feature","geometry":{"type":"Polygon","coordinates":[[[35.543665,33.8873854],[35.5437789,33.8876843],[35.5435938,33.8877329],[35.54348,33.8874339],[35.543665,33.8873854]]]},"properties":{"fid":3449,"id":"way/837044609","@id":"way/837044609","AREA":624}},
{"type":"Feature","geometry":{"type":"Polygon","coordinates":[[[35.5438339,33.8878734],[35.5438888,33.8879952],[35.5437021,33.8880603],[35.5436425,33.8879275],[35.5438339,33.8878734]]]},"properties":{"fid":3450,"id":"way/837044610","@id":"way/837044610","AREA":217}},
{"type":"Feature","geometry":{"type":"Polygon","coordinates":[[[35.543761,33.8877431],[35.5438292,33.8878701],[35.5436369,33.8879219],[35.5435886,33.8878092],[35.543761,33.8877431]]]},"properties":{"fid":3451,"id":"way/837044611","@id":"way/837044611","AREA":208}},
{"type":"Feature","geometry":null,"properties":{"fid":3452,"id":"way/837044612","@id":"way/837044612","AREA":194}},
{"type":"Feature","geometry":{"type":"Polygon","coordinates":[[[35.5440427,33.8879454],[35.5439209,33.8878251],[35.5441171,33.8877963],[35.544171,33.887909],[35.5440427,33.8879454]]]},"properties":{"fid":3453,"id":"way/837044613","@id":"way/837044613","AREA":183}},
{"type":"Feature","geometry":null,"properties":{"fid":3454,"id":"way/837048327","@id":"way/837048327","AREA":86}},
{"type":"Feature","geometry":null,"properties":{"fid":3455,"id":"way/837048328","@id":"way/837048328","AREA":25}},
{"type":"Feature","geometry":null,"properties":{"fid":3456,"id":"way/837048329","@id":"way/837048329","AREA":46}},
{"type":"Feature","geometry":null,"properties":{"fid":3457,"id":"way/837048330","@id":"way/837048330","AREA":50}},
{"type":"Feature","geometry":null,"properties":{"fid":3458,"id":"way/837048331","@id":"way/837048331","AREA":142}},
{"type":"Feature","geometry":null,"properties":{"fid":3459,"id":"way/837048332","@id":"way/837048332","AREA":62}},
{"type":"Feature","geometry":null,"properties":{"fid":3460,"id":"way/837048333","@id":"way/837048333","AREA":87}},
{"type":"Feature","geometry":null,"properties":{"fid":3461,"id":"way/837048334","@id":"way/837048334","AREA":61}},
{"type":"Feature","geometry":null,"properties":{"fid":3462,"id":"way/837048335","@id":"way/837048335","AREA":50}},
{"type":"Feature","geometry":null,"properties":{"fid":3463,"id":"way/837048336","@id":"way/837048336","AREA":36}},
{"type":"Feature","geometry":null,"properties":{"fid":3464,"id":"way/837048337","@id":"way/837048337","AREA":40}},
{"type":"Feature","geometry":null,"properties":{"fid":3465,"id":"way/837048338","@id":"way/837048338","AREA":71}},
{"type":"Feature","geometry":null,"properties":{"fid":3466,"id":"way/837048339","@id":"way/837048339","AREA":72}},
{"type":"Feature","geometry":null,"properties":{"fid":3467,"id":"way/837050812","@id":"way/837050812","AREA":65}},
{"type":"Feature","geometry":null,"properties":{"fid":3468,"id":"way/837050813","@id":"way/837050813","AREA":117}},
{"type":"Feature","geometry":{"type":"Polygon","coordinates":[[[35.5420888,33.8893935],[35.5420877,33.8894726],[35.5418747,33.889513],[35.5418541,33.889438],[35.5420888,33.8893935]]]},"properties":{"fid":3469,"id":"way/837050814","@id":"way/837050814","AREA":188}},
{"type":"Feature","geometry":null,"properties":{"fid":3470,"id":"way/837050815","@id":"way/837050815","AREA":123}},
{"type":"Feature","geometry":null,"properties":{"fid":3471,"id":"way/837050816","@id":"way/837050816","AREA":82}},
{"type":"Feature","geometry":null,"properties":{"fid":3472,"id":"way/837050817","@id":"way/837050817","AREA":40}},
{"type":"Feature","geometry":null,"properties":{"fid":3473,"id":"way/837050818","@id":"way/837050818","AREA":52}},
{"type":"Feature","geometry":null,"properties":{"fid":3474,"id":"way/837050819","@id":"way/837050819","AREA":18}},
{"type":"Feature","geometry":null,"properties":{"fid":3475,"id":"way/837050820","@id":"way/837050820","AREA":61}},
{"type":"Feature","geometry":null,"properties":{"fid":3476,"id":"way/837050821","@id":"way/837050821","AREA":30}},
{"type":"Feature","geometry":null,"properties":{"fid":3477,"id":"way/837050822","@id":"way/837050822","AREA":4}},
{"type":"Feature","geometry":null,"properties":{"fid":3478,"id":"way/837050823","@id":"way/837050823","AREA":6}},
{"type":"Feature","geometry":null,"properties":{"fid":3480,"id":"way/837050825","@id":"way/837050825","AREA":24}},
{"type":"Feature","geometry":{"type":"Polygon","coordinates":[[[35.54162433541303,33.8894085120462],[35.541731100669885,33.889566892287455],[35.54159126092375,33.889600536100026],[35.541532119113,33.88943012079893],[35.54162433541303,33.8894085120462]]]},"properties":{"fid":3481,"id":"way/837050826","@id":"way/837050826","AREA":228}},
{"type":"Feature","geometry":{"type":"Polygon","coordinates":[[[35.54146434723052,33.88962815084561],[35.541409319113,33.88946062079893],[35.541521519113,33.88943522079893],[35.541576849729154,33.88960367178588],[35.54146434723052,33.88962815084561]]]},"properties":{"fid":3482,"id":"way/837050827","@id":"way/837050827","AREA":220}},
{"type":"Feature","geometry":null,"properties":{"fid":3483,"id":"way/837050828","@id":"way/837050828","AREA":116}},
{"type":"Feature","geometry":null,"properties":{"fid":3484,"id":"way/837050829","@id":"way/837050829","AREA":167}},
{"type":"Feature","geometry":null,"properties":{"fid":3485,"id":"way/837050830","@id":"way/837050830","AREA":30}},
{"type":"Feature","geometry":null,"properties":{"fid":3486,"id":"way/837050831","@id":"way/837050831","AREA":98}},
{"type":"Feature","geometry":null,"properties":{"fid":3487,"id":"way/837050832","@id":"way/837050832","AREA":44}},
{"type":"Feature","geometry":null,"properties":{"fid":3520,"id":"way/837072009","@id":"way/837072009","AREA":63}},
{"type":"Feature","geometry":null,"properties":{"fid":3544,"id":"way/837079570","@id":"way/837079570","AREA":192}},
{"type":"Feature","geometry":null,"properties":{"fid":3578,"id":"way/837083530","@id":"way/837083530","AREA":175}},
{"type":"Feature","geometry":null,"properties":{"fid":3579,"id":"way/837083531","@id":"way/837083531","AREA":83}},
{"type":"Feature","geometry":null,"properties":{"fid":3580,"id":"way/837083533","@id":"way/837083533","AREA":60}},
{"type":"Feature","geometry":null,"properties":{"fid":3581,"id":"way/837083535","@id":"way/837083535","AREA":8}},
{"type":"Feature","geometry":{"type":"Polygon","coordinates":[[[35.5380368,33.8899544],[35.5380517,33.8900315],[35.5378318,33.8900574],[35.5378223,33.8899652],[35.5380368,33.8899544]]]},"properties":{"fid":3582,"id":"way/837083536","@id":"way/837083536","AREA":180}},
{"type":"Feature","geometry":null,"properties":{"fid":3583,"id":"way/837083538","@id":"way/837083538","AREA":153}},
{"type":"Feature","geometry":null,"properties":{"fid":3584,"id":"way/837083539","@id":"way/837083539","AREA":56}},
{"type":"Feature","geometry":null,"properties":{"fid":3585,"id":"way/837083541","@id":"way/837083541","AREA":102}},
{"type":"Feature","geometry":null,"properties":{"fid":3586,"id":"way/837087433","@id":"way/837087433","AREA":71}},
{"type":"Feature","geometry":null,"properties":{"fid":3587,"id":"way/837087434","@id":"way/837087434","AREA":63}},
{"type":"Feature","geometry":null,"properties":{"fid":3588,"id":"way/837087435","@id":"way/837087435","AREA":51}},
{"type":"Feature","geometry":null,"properties":{"fid":3589,"id":"way/837087436","@id":"way/837087436","AREA":60}},
{"type":"Feature","geometry":null,"properties":{"fid":3590,"id":"way/837087437","@id":"way/837087437","AREA":52}},
{"type":"Feature","geometry":null,"properties":{"fid":3591,"id":"way/837087438","@id":"way/837087438","AREA":29}},
{"type":"Feature","geometry":null,"properties":{"fid":3592,"id":"way/837087439","@id":"way/837087439","AREA":22}},
{"type":"Feature","geometry":null,"properties":{"fid":3593,"id":"way/837087440","@id":"way/837087440","AREA":56}},
{"type":"Feature","geometry":null,"properties":{"fid":3594,"id":"way/837087441","@id":"way/837087441","AREA":31}},
{"type":"Feature","geometry":null,"properties":{"fid":3595,"id":"way/837087442","@id":"way/837087442","AREA":17}},
{"type":"Feature","geometry":null,"properties":{"fid":3596,"id":"way/837087443","@id":"way/837087443","AREA":13}},
{"type":"Feature","geometry":null,"properties":{"fid":3597,"id":"way/837087444","@id":"way/837087444","AREA":31}},
{"type":"Feature","geometry":null,"properties":{"fid":3598,"id":"way/837087445","@id":"way/837087445","AREA":46}},
{"type":"Feature","geometry":null,"properties":{"fid":3605,"id":"way/837087454","@id":"way/837087454","AREA":71}},
{"type":"Feature","geometry":null,"properties":{"fid":3606,"id":"way/837087455","@id":"way/837087455","AREA":15}},
{"type":"Feature","geometry":null,"properties":{"fid":3607,"id":"way/837087456","@id":"way/837087456","AREA":10}},
{"type":"Feature","geometry":null,"properties":{"fid":3608,"id":"way/837087457","@id":"way/837087457","AREA":32}},
{"type":"Feature","geometry":null,"properties":{"fid":3609,"id":"way/837087458","@id":"way/837087458","AREA":89}},
{"type":"Feature","geometry":null,"properties":{"fid":3610,"id":"way/837087459","@id":"way/837087459","AREA":77}},
{"type":"Feature","geometry":null,"properties":{"fid":3659,"id":"way/837115613","@id":"way/837115613","AREA":101}},
{"type":"Feature","geometry":null,"properties":{"fid":3660,"id":"way/837115614","@id":"way/837115614","AREA":78}},
{"type":"Feature","geometry":null,"properties":{"fid":3661,"id":"way/837115615","@id":"way/837115615","AREA":88}},
{"type":"Feature","geometry":null,"properties":{"fid":3662,"id":"way/837115616","@id":"way/837115616","AREA":70}},
{"type":"Feature","geometry":null,"properties":{"fid":3666,"id":"way/837115620","@id":"way/837115620","AREA":77}},
{"type":"Feature","geometry":null,"properties":{"fid":3668,"id":"way/837115622","@id":"way/837115622","AREA":21}},
{"type":"Feature","geometry":null,"properties":{"fid":3669,"id":"way/837115623","@id":"way/837115623","AREA":37}},
{"type":"Feature","geometry":null,"properties":{"fid":3670,"id":"way/837115624","@id":"way/837115624","AREA":43}},
{"type":"Feature","geometry":null,"properties":{"fid":3671,"id":"way/837115625","@id":"way/837115625","AREA":47}},
{"type":"Feature","geometry":null,"properties":{"fid":3672,"id":"way/837115626","@id":"way/837115626","AREA":87}},
{"type":"Feature","geometry":null,"properties":{"fid":3673,"id":"way/837115627","@id":"way/837115627","AREA":70}},
{"type":"Feature","geometry":{"type":"Polygon","coordinates":[[[35.54770914959553,33.8890226499776],[35.5476429,33.8889808],[35.5478172,33.8887905],[35.54795928117047,33.88880959297842],[35.54770914959553,33.8890226499776]]]},"properties":{"fid":3693,"id":"way/837129409","@id":"way/837129409","AREA":467}},
{"type":"Feature","geometry":null,"properties":{"fid":3694,"id":"way/837129410","@id":"way/837129410","AREA":89}},
{"type":"Feature","geometry":{"type":"Polygon","coordinates":[[[35.5474163,33.888675],[35.5477286,33.8888777],[35.5476325,33.8889791],[35.5473178,33.8887875],[35.5474163,33.888675]]]},"properties":{"fid":3695,"id":"way/837129411","@id":"way/837129411","AREA":557}},
{"type":"Feature","geometry":{"type":"Polygon","coordinates":[[[35.54743842817125,33.88925324439292],[35.5473022,33.8891318],[35.5474686,33.8889815],[35.54765298308708,33.88907049139645],[35.54743842817125,33.88925324439292]]]},"properties":{"fid":3696,"id":"way/837129412","@id":"way/837129412","AREA":538}},
{"type":"Feature","geometry":{"type":"Polygon","coordinates":[[[35.5479566,33.8890289],[35.5479221,33.8892334],[35.5478235,33.8892219],[35.5478549,33.8890321],[35.5479566,33.8890289]]]},"properties":{"fid":3697,"id":"way/837129413","@id":"way/837129413","AREA":224}},
{"type":"Feature","geometry":null,"properties":{"fid":3707,"id":"way/837129423","@id":"way/837129423","AREA":26}},
{"type":"Feature","geometry":null,"properties":{"fid":3793,"id":"way/837140729","@id":"way/837140729","AREA":182}},
{"type":"Feature","geometry":null,"properties":{"fid":3848,"id":"way/837173052","@id":"way/837173052","AREA":211}},
{"type":"Feature","geometry":null,"properties":{"fid":3850,"id":"way/837173054","@id":"way/837173054","AREA":184}},
{"type":"Feature","geometry":{"type":"Polygon","coordinates":[[[35.5470657,33.8890858],[35.5470734,33.8892164],[35.5469185,33.8892126],[35.5469226,33.889096],[35.5470657,33.8890858]]]},"properties":{"fid":3857,"id":"way/837173061","@id":"way/837173061","AREA":202}},
{"type":"Feature","geometry":{"type":"Polygon","coordinates":[[[35.5471634,33.8887715],[35.5472422,33.8888238],[35.5473159,33.8887879],[35.5474644,33.8889724],[35.5471916,33.8892233],[35.5471703,33.8890013],[35.5470572,33.8890447],[35.5469049,33.888973],[35.5471634,33.8887715]]]},"properties":{"fid":3858,"id":"way/837173062","@id":"way/837173062","AREA":1331}},
{"type":"Feature","geometry":null,"properties":{"fid":3859,"id":"way/837173063","@id":"way/837173063","AREA":88}},
{"type":"Feature","geometry":{"type":"Polygon","coordinates":[[[35.5464491,33.8886389],[35.5465379,33.8887545],[35.5463638,33.888841],[35.5462784,33.888727],[35.5464491,33.8886389]]]},"properties":{"fid":3860,"id":"way/837173064","@id":"way/837173064","AREA":220}},
{"type":"Feature","geometry":null,"properties":{"fid":3861,"id":"way/837173065","@id":"way/837173065","AREA":223}},
{"type":"Feature","geometry":null,"properties":{"fid":3866,"id":"way/837173070","@id":"way/837173070","AREA":9}},
{"type":"Feature","geometry":null,"properties":{"fid":3867,"id":"way/837173071","@id":"way/837173071","AREA":8}},
{"type":"Feature","geometry":null,"properties":{"fid":3868,"id":"way/837173072","@id":"way/837173072","AREA":7}},
{"type":"Feature","geometry":null,"properties":{"fid":3870,"id":"way/837173074","@id":"way/837173074","AREA":6}},
{"type":"Feature","geometry":null,"properties":{"fid":3871,"id":"way/837173075","@id":"way/837173075","AREA":193}},
{"type":"Feature","geometry":null,"properties":{"fid":3872,"id":"way/837173076","@id":"way/837173076","AREA":97}},
{"type":"Feature","geometry":null,"properties":{"fid":3911,"id":"way/837189669","@id":"way/837189669","AREA":111}},
{"type":"Feature","geometry":null,"properties":{"fid":3912,"id":"way/837189670","@id":"way/837189670","AREA":64}},
{"type":"Feature","geometry":null,"properties":{"fid":3913,"id":"way/837189671","@id":"way/837189671","AREA":65}},
{"type":"Feature","geometry":{"type":"Polygon","coordinates":[[[35.5366087,33.8893464],[35.5364888,33.8893487],[35.5365287,33.8891239],[35.536746,33.8891676],[35.5367079,33.8893742],[35.5366087,33.8893464]]]},"properties":{"fid":3914,"id":"way/837189672","@id":"way/837189672","AREA":484}},
{"type":"Feature","geometry":null,"properties":{"fid":3915,"id":"way/837189675","@id":"way/837189675","AREA":12}},
{"type":"Feature","geometry":null,"properties":{"fid":3923,"id":"way/837189684","@id":"way/837189684","AREA":245}},
{"type":"Feature","geometry":{"type":"Polygon","coordinates":[[[35.53786252331106,33.88877225171896],[35.53798602331106,33.88876385171896],[35.53799632331106,33.88892015171896],[35.53779062331107,33.888932551718966],[35.53786252331106,33.88877225171896]]]},"properties":{"fid":3924,"id":"way/837189685","@id":"way/837189685","AREA":275}},
{"type":"Feature","geometry":null,"properties":{"fid":3925,"id":"way/837189686","@id":"way/837189686","AREA":75}},
{"type":"Feature","geometry":{"type":"Polygon","coordinates":[[[35.537899923311066,33.88910485171896],[35.538042623311064,33.889092951718965],[35.53805622331107,33.889244351718965],[35.537855323311064,33.889257751718965],[35.537899923311066,33.88910485171896]]]},"properties":{"fid":3930,"id":"way/837189691","@id":"way/837189691","AREA":250}},
{"type":"Feature","geometry":null,"properties":{"fid":3931,"id":"way/837189692","@id":"way/837189692","AREA":80}},
{"type":"Feature","geometry":null,"properties":{"fid":3932,"id":"way/837189693","@id":"way/837189693","AREA":124}},
{"type":"Feature","geometry":{"type":"Polygon","coordinates":[[[35.53758026335437,33.88931473751529],[35.53756446335437,33.88937903751529],[35.53731266335438,33.88935003751529],[35.53733176335437,33.88927263751529],[35.53758026335437,33.88931473751529]]]},"properties":{"fid":3934,"id":"way/837189695","@id":"way/837189695","AREA":190}},
{"type":"Feature","geometry":null,"properties":{"fid":3935,"id":"way/837189696","@id":"way/837189696","AREA":115}},
{"type":"Feature","geometry":null,"properties":{"fid":3936,"id":"way/837189697","@id":"way/837189697","AREA":121}},
{"type":"Feature","geometry":null,"properties":{"fid":3937,"id":"way/837189698","@id":"way/837189698","AREA":72}},
{"type":"Feature","geometry":null,"properties":{"fid":3938,"id":"way/837189699","@id":"way/837189699","AREA":20}},
{"type":"Feature","geometry":{"type":"Polygon","coordinates":[[[35.53823812331107,33.88889005171897],[35.538330423311066,33.88894985171896],[35.53829232331106,33.88916505171896],[35.53818782331106,33.88913755171897],[35.53823812331107,33.88889005171897]]]},"properties":{"fid":3939,"id":"way/837189700","@id":"way/837189700","AREA":547}},
{"type":"Feature","geometry":null,"properties":{"fid":4061,"id":"way/837245887","@id":"way/837245887","AREA":200}},
{"type":"Feature","geometry":null,"properties":{"fid":4062,"id":"way/837245888","@id":"way/837245888","AREA":152}},
{"type":"Feature","geometry":null,"properties":{"fid":4063,"id":"way/837258397","@id":"way/837258397","AREA":76}},
{"type":"Feature","geometry":null,"properties":{"fid":4064,"id":"way/837258398","@id":"way/837258398","AREA":58}},
{"type":"Feature","geometry":null,"properties":{"fid":4065,"id":"way/837258399","@id":"way/837258399","AREA":81}},
{"type":"Feature","geometry":null,"properties":{"fid":4066,"id":"way/837258400","@id":"way/837258400","AREA":34}},
{"type":"Feature","geometry":null,"properties":{"fid":4067,"id":"way/837258401","@id":"way/837258401","AREA":40}},
{"type":"Feature","geometry":null,"properties":{"fid":4068,"id":"way/837258402","@id":"way/837258402","AREA":19}},
{"type":"Feature","geometry":null,"properties":{"fid":4069,"id":"way/837258403","@id":"way/837258403","AREA":57}},
{"type":"Feature","geometry":null,"properties":{"fid":4070,"id":"way/837258404","@id":"way/837258404","AREA":32}},
{"type":"Feature","geometry":null,"properties":{"fid":4071,"id":"way/837258405","@id":"way/837258405","AREA":34}},
{"type":"Feature","geometry":null,"properties":{"fid":4072,"id":"way/837258406","@id":"way/837258406","AREA":39}},
{"type":"Feature","geometry":null,"properties":{"fid":4073,"id":"way/837258407","@id":"way/837258407","AREA":9}},
{"type":"Feature","geometry":null,"properties":{"fid":4074,"id":"way/837258408","@id":"way/837258408","AREA":15}},
{"type":"Feature","geometry":null,"properties":{"fid":4075,"id":"way/837258409","@id":"way/837258409","AREA":8}},
{"type":"Feature","geometry":null,"properties":{"fid":4076,"id":"way/837258410","@id":"way/837258410","AREA":18}},
{"type":"Feature","geometry":null,"properties":{"fid":4077,"id":"way/837258411","@id":"way/837258411","AREA":39}},
{"type":"Feature","geometry":null,"properties":{"fid":4125,"id":"way/837345196","@id":"way/837345196","AREA":46}},
{"type":"Feature","geometry":null,"properties":{"fid":4126,"id":"way/837345197","@id":"way/837345197","AREA":28}},
{"type":"Feature","geometry":null,"properties":{"fid":4127,"id":"way/837345198","@id":"way/837345198","AREA":58}},
{"type":"Feature","geometry":null,"properties":{"fid":4128,"id":"way/837345199","@id":"way/837345199","AREA":74}},
{"type":"Feature","geometry":null,"properties":{"fid":4129,"id":"way/837345200","@id":"way/837345200","AREA":78}},
{"type":"Feature","geometry":null,"properties":{"fid":4130,"id":"way/837345201","@id":"way/837345201","AREA":27}},
{"type":"Feature","geometry":null,"properties":{"fid":4131,"id":"way/837345202","@id":"way/837345202","AREA":139}},
{"type":"Feature","geometry":null,"properties":{"fid":4132,"id":"way/837345203","@id":"way/837345203","AREA":91}},
{"type":"Feature","geometry":null,"properties":{"fid":4133,"id":"way/837345204","@id":"way/837345204","AREA":106}},
{"type":"Feature","geometry":null,"properties":{"fid":4134,"id":"way/837345205","@id":"way/837345205","AREA":14}},
{"type":"Feature","geometry":{"type":"Polygon","coordinates":[[[35.5462955,33.8856382],[35.5461701,33.8855726],[35.546319,33.8853767],[35.5464444,33.8854423],[35.5462955,33.8856382]]]},"properties":{"fid":4432,"id":"way/837541132","@id":"way/837541132","AREA":352}},
{"type":"Feature","geometry":null,"properties":{"fid":4803,"id":"way/837605184","@id":"way/837605184","AREA":55}},
{"type":"Feature","geometry":null,"properties":{"fid":4805,"id":"way/837605186","@id":"way/837605186","AREA":59}},
{"type":"Feature","geometry":{"type":"Polygon","coordinates":[[[35.5418833,33.888446],[35.5421904,33.8883714],[35.5422113,33.8884308],[35.5419042,33.8885054],[35.5418833,33.888446]]]},"properties":{"fid":4828,"id":"way/837636248","@id":"way/837636248","AREA":203}},
{"type":"Feature","geometry":{"type":"Polygon","coordinates":[[[35.5418672,33.8883914],[35.5418468,33.8883331],[35.5421472,33.8882607],[35.5421676,33.8883191],[35.5418672,33.8883914]]]},"properties":{"fid":4829,"id":"way/837636249","@id":"way/837636249","AREA":195}},
{"type":"Feature","geometry":null,"properties":{"fid":4830,"id":"way/837636250","@id":"way/837636250","AREA":57}},
{"type":"Feature","geometry":null,"properties":{"fid":4831,"id":"way/837636251","@id":"way/837636251","AREA":134}},
{"type":"Feature","geometry":null,"properties":{"fid":4832,"id":"way/837636252","@id":"way/837636252","AREA":117}},
{"type":"Feature","geometry":null,"properties":{"fid":4833,"id":"way/837636253","@id":"way/837636253","AREA":129}},
{"type":"Feature","geometry":null,"properties":{"fid":4834,"id":"way/837636254","@id":"way/837636254","AREA":87}},
{"type":"Feature","geometry":null,"properties":{"fid":4835,"id":"way/837636255","@id":"way/837636255","AREA":121}},
{"type":"Feature","geometry":null,"properties":{"fid":4843,"id":"way/837636263","@id":"way/837636263","AREA":74}},
{"type":"Feature","geometry":null,"properties":{"fid":4844,"id":"way/837636264","@id":"way/837636264","AREA":180}},
{"type":"Feature","geometry":null,"properties":{"fid":4845,"id":"way/837636265","@id":"way/837636265","AREA":76}},
{"type":"Feature","geometry":null,"properties":{"fid":4846,"id":"way/837636266","@id":"way/837636266","AREA":125}},
{"type":"Feature","geometry":null,"properties":{"fid":4847,"id":"way/837636267","@id":"way/837636267","AREA":149}},
{"type":"Feature","geometry":null,"properties":{"fid":4848,"id":"way/837636268","@id":"way/837636268","AREA":135}},
{"type":"Feature","geometry":null,"properties":{"fid":4849,"id":"way/837636269","@id":"way/837636269","AREA":164}},
{"type":"Feature","geometry":null,"properties":{"fid":4850,"id":"way/837636271","@id":"way/837636271","AREA":209}},
{"type":"Feature","geometry":{"type":"Polygon","coordinates":[[[35.54165457151207,33.88808672735368],[35.5416929,33.8882036],[35.541538,33.8882316],[35.5415443,33.8881067],[35.54165457151207,33.88808672735368]]]},"properties":{"fid":4851,"id":"way/837636272","@id":"way/837636272","AREA":176}},
{"type":"Feature","geometry":null,"properties":{"fid":4852,"id":"way/837636273","@id":"way/837636273","AREA":154}},
{"type":"Feature","geometry":null,"properties":{"fid":4853,"id":"way/837636274","@id":"way/837636274","AREA":85}},
{"type":"Feature","geometry":null,"properties":{"fid":4854,"id":"way/837636275","@id":"way/837636275","AREA":150}},
{"type":"Feature","geometry":{"type":"Polygon","coordinates":[[[35.54104280002398,33.888315825132516],[35.5409858061987,33.888189534052984],[35.54117638008062,33.88816023788146],[35.54123116209897,33.88828876492633],[35.54104280002398,33.888315825132516]]]},"properties":{"fid":4855,"id":"way/837636276","@id":"way/837636276","AREA":290}},
{"type":"Feature","geometry":null,"properties":{"fid":5120,"id":"way/837830193","@id":"way/837830193","AREA":156}},
{"type":"Feature","geometry":{"type":"Polygon","coordinates":[[[35.545019,33.8873283],[35.5449117,33.8873798],[35.544828,33.8872596],[35.5449352,33.8872081],[35.545019,33.8873283]]]},"properties":{"fid":5121,"id":"way/837830194","@id":"way/837830194","AREA":177}},
{"type":"Feature","geometry":{"type":"Polygon","coordinates":[[[35.545346,33.8873754],[35.545189,33.8871735],[35.5453045,33.8870706],[35.5453931,33.8872573],[35.545346,33.8873754]]]},"properties":{"fid":5122,"id":"way/837830195","@id":"way/837830195","AREA":508}},
{"type":"Feature","geometry":{"type":"Polygon","coordinates":[[[35.5421441,33.8886212],[35.542112,33.8885143],[35.5425465,33.8883986],[35.5425787,33.8885121],[35.5421441,33.8886212]]]},"properties":{"fid":5289,"id":"way/837976557","@id":"way/837976557","AREA":534}},
{"type":"Feature","geometry":{"type":"Polygon","coordinates":[[[35.5425902,33.8885221],[35.5425587,33.8884198],[35.5428049,33.8883675],[35.5428364,33.8884698],[35.5425902,33.8885221]]]},"properties":{"fid":5290,"id":"way/837976558","@id":"way/837976558","AREA":275}},
{"type":"Feature","geometry":null,"properties":{"fid":5291,"id":"way/837976559","@id":"way/837976559","AREA":201}},
{"type":"Feature","geometry":null,"properties":{"fid":5292,"id":"way/837976560","@id":"way/837976560","AREA":142}},
{"type":"Feature","geometry":null,"properties":{"fid":5294,"id":"way/837976570","@id":"way/837976570","AREA":63}},
{"type":"Feature","geometry":null,"properties":{"fid":5295,"id":"way/837976571","@id":"way/837976571","AREA":60}},
{"type":"Feature","geometry":null,"properties":{"fid":5296,"id":"way/837976572","@id":"way/837976572","AREA":139}},
{"type":"Feature","geometry":null,"properties":{"fid":5297,"id":"way/837976574","@id":"way/837976574","AREA":66}},
{"type":"Feature","geometry":null,"properties":{"fid":5298,"id":"way/837976575","@id":"way/837976575","AREA":122}},
{"type":"Feature","geometry":null,"properties":{"fid":5299,"id":"way/837976576","@id":"way/837976576","AREA":148}},
{"type":"Feature","geometry":null,"properties":{"fid":5300,"id":"way/837976577","@id":"way/837976577","AREA":270}},
{"type":"Feature","geometry":null,"properties":{"fid":5301,"id":"way/837976578","@id":"way/837976578","AREA":135}},
{"type":"Feature","geometry":null,"properties":{"fid":5302,"id":"way/837976579","@id":"way/837976579","AREA":43}},
{"type":"Feature","geometry":null,"properties":{"fid":5303,"id":"way/837976581","@id":"way/837976581","AREA":303}},
{"type":"Feature","geometry":{"type":"Polygon","coordinates":[[[35.543966,33.8859823],[35.5440171,33.88597],[35.5441821,33.8864443],[35.544131,33.8864566],[35.543966,33.8859823]]]},"properties":{"fid":5386,"id":"way/838089895","@id":"way/838089895","AREA":270}},
{"type":"Feature","geometry":null,"properties":{"fid":5387,"id":"way/838089896","@id":"way/838089896","AREA":209}},
{"type":"Feature","geometry":{"type":"Polygon","coordinates":[[[35.5437839,33.8859321],[35.5438341,33.8859199],[35.5441251,33.8867438],[35.5440749,33.886756],[35.5437839,33.8859321]]]},"properties":{"fid":5388,"id":"way/838089897","@id":"way/838089897","AREA":461}},
{"type":"Feature","geometry":null,"properties":{"fid":5389,"id":"way/838089898","@id":"way/838089898","AREA":149}},
{"type":"Feature","geometry":null,"properties":{"fid":5390,"id":"way/838089899","@id":"way/838089899","AREA":59}},
{"type":"Feature","geometry":{"type":"Polygon","coordinates":[[[35.5443656,33.885823],[35.544595,33.8857395],[35.5446754,33.8863441],[35.5445829,33.8863574],[35.5443656,33.885823]]]},"properties":{"fid":5391,"id":"way/838089900","@id":"way/838089900","AREA":1014}},
{"type":"Feature","geometry":{"type":"Polygon","coordinates":[[[35.5447002,33.885341],[35.5448753,33.885263],[35.5449283,33.8853452],[35.5447952,33.8854879],[35.5447002,33.885341]]]},"properties":{"fid":5392,"id":"way/838089901","@id":"way/838089901","AREA":266}},
{"type":"Feature","geometry":{"type":"Polygon","coordinates":[[[35.5448173,33.8861918],[35.5448324,33.8863493],[35.5447275,33.8863585],[35.5446887,33.8862081],[35.5448173,33.8861918]]]},"properties":{"fid":5393,"id":"way/838089902","@id":"way/838089902","AREA":188}},
{"type":"Feature","geometry":{"type":"Polygon","coordinates":[[[35.5446379,33.8857932],[35.5447597,33.8857772],[35.544795,33.8859626],[35.5446502,33.8859914],[35.5446379,33.8857932]]]},"properties":{"fid":5394,"id":"way/838089903","@id":"way/838089903","AREA":277}},
{"type":"Feature","geometry":{"type":"Polygon","coordinates":[[[35.544677,33.8861914],[35.5446569,33.8860022],[35.5447853,33.8859928],[35.5448054,33.886182],[35.544677,33.8861914]]]},"properties":{"fid":5395,"id":"way/838089904","@id":"way/838089904","AREA":251}},
{"type":"Feature","geometry":{"type":"Polygon","coordinates":[[[35.5445842,33.8856572],[35.5445105,33.8855294],[35.5446419,33.8854771],[35.5447157,33.8856048],[35.5445842,33.8856572]]]},"properties":{"fid":5396,"id":"way/838089905","@id":"way/838089905","AREA":212}},
{"type":"Feature","geometry":null,"properties":{"fid":5397,"id":"way/838089906","@id":"way/838089906","AREA":61}},
{"type":"Feature","geometry":null,"properties":{"fid":5398,"id":"way/838089907","@id":"way/838089907","AREA":112}},
{"type":"Feature","geometry":{"type":"Polygon","coordinates":[[[35.5440512,33.8856427],[35.5441658,33.8855748],[35.544249,33.8857896],[35.5441618,33.8858308],[35.5440512,33.8856427]]]},"properties":{"fid":5399,"id":"way/838089908","@id":"way/838089908","AREA":288}},
{"type":"Feature","geometry":null,"properties":{"fid":5403,"id":"way/838089913","@id":"way/838089913","AREA":105}},
{"type":"Feature","geometry":{"type":"Polygon","coordinates":[[[35.5441735,33.8863758],[35.5442337,33.8863337],[35.5443785,33.8865196],[35.5442845,33.8865701],[35.5441735,33.8863758]]]},"properties":{"fid":5404,"id":"way/838089914","@id":"way/838089914","AREA":211}},
{"type":"Feature","geometry":null,"properties":{"fid":5405,"id":"way/838089915","@id":"way/838089915","AREA":106}},
{"type":"Feature","geometry":null,"properties":{"fid":5406,"id":"way/838089916","@id":"way/838089916","AREA":257}},
{"type":"Feature","geometry":{"type":"Polygon","coordinates":[[[35.5435376,33.8861814],[35.5434301,33.8861484],[35.5434938,33.8860055],[35.543757,33.8860881],[35.5436977,33.8862212],[35.5435376,33.8861814]]]},"properties":{"fid":5407,"id":"way/838089917","@id":"way/838089917","AREA":372}},
{"type":"Feature","geometry":{"type":"Polygon","coordinates":[[[35.5434906,33.8863309],[35.5433815,33.8862974],[35.5434403,33.8861653],[35.5437079,33.8862381],[35.5436394,33.8863629],[35.5434906,33.8863309]]]},"properties":{"fid":5408,"id":"way/838089918","@id":"way/838089918","AREA":345}},
{"type":"Feature","geometry":null,"properties":{"fid":5466,"id":"way/838134754","@id":"way/838134754","AREA":13}},
{"type":"Feature","geometry":null,"properties":{"fid":5467,"id":"way/838134755","@id":"way/838134755","AREA":36}},
{"type":"Feature","geometry":{"type":"Polygon","coordinates":[[[35.5434303,33.886994],[35.5435161,33.8872207],[35.5434031,33.8872502],[35.5432882,33.8869469],[35.5434303,33.886994]]]},"properties":{"fid":5468,"id":"way/838134758","@id":"way/838134758","AREA":462}},
{"type":"Feature","geometry":{"type":"Polygon","coordinates":[[[35.54396,33.8871081],[35.5440882,33.8870734],[35.5441507,33.8872328],[35.5440225,33.8872674],[35.54396,33.8871081]]]},"properties":{"fid":5469,"id":"way/838134759","@id":"way/838134759","AREA":232}},
{"type":"Feature","geometry":{"type":"Polygon","coordinates":[[[35.5441972,33.8872666],[35.5442289,33.8873472],[35.5437595,33.8874741],[35.5437278,33.8873935],[35.5441972,33.8872666]]]},"properties":{"fid":5470,"id":"way/838134760","@id":"way/838134760","AREA":512}},
{"type":"Feature","geometry":{"type":"Polygon","coordinates":[[[35.5439007,33.8869702],[35.5440013,33.8869302],[35.544061,33.8870794],[35.5439559,33.8871084],[35.5439007,33.8869702]]]},"properties":{"fid":5471,"id":"way/838134761","@id":"way/838134761","AREA":253}},
{"type":"Feature","geometry":{"type":"Polygon","coordinates":[[[35.5437007,33.8869267],[35.5436651,33.8868322],[35.5439226,33.8867654],[35.5439581,33.8868599],[35.5437007,33.8869267]]]},"properties":{"fid":5472,"id":"way/838134762","@id":"way/838134762","AREA":274}},
{"type":"Feature","geometry":{"type":"Polygon","coordinates":[[[35.5437592,33.8866648],[35.5435261,33.8867252],[35.5434871,33.8866159],[35.543975,33.8865087],[35.5439826,33.8866143],[35.5437592,33.8866648]]]},"properties":{"fid":5473,"id":"way/838134763","@id":"way/838134763","AREA":549}},
{"type":"Feature","geometry":null,"properties":{"fid":5474,"id":"way/838134765","@id":"way/838134765","AREA":115}},
{"type":"Feature","geometry":null,"properties":{"fid":5475,"id":"way/838134766","@id":"way/838134766","AREA":87}},
{"type":"Feature","geometry":null,"properties":{"fid":5476,"id":"way/838134767","@id":"way/838134767","AREA":150}},
{"type":"Feature","geometry":null,"properties":{"fid":5477,"id":"way/838134768","@id":"way/838134768","AREA":100}},
{"type":"Feature","geometry":null,"properties":{"fid":5478,"id":"way/838134769","@id":"way/838134769","AREA":71}},
{"type":"Feature","geometry":null,"properties":{"fid":5479,"id":"way/838134771","@id":"way/838134771","AREA":160}},
{"type":"Feature","geometry":null,"properties":{"fid":5480,"id":"way/838134772","@id":"way/838134772","AREA":73}},
{"type":"Feature","geometry":{"type":"Polygon","coordinates":[[[35.5447284,33.8869408],[35.5448433,33.8870707],[35.5447438,33.8871281],[35.5446221,33.8869953],[35.5447284,33.8869408]]]},"properties":{"fid":5481,"id":"way/838134773","@id":"way/838134773","AREA":207}},
{"type":"Feature","geometry":null,"properties":{"fid":5482,"id":"way/838134775","@id":"way/838134775","AREA":176}},
{"type":"Feature","geometry":null,"properties":{"fid":5483,"id":"way/838134776","@id":"way/838134776","AREA":157}},
{"type":"Feature","geometry":null,"properties":{"fid":5508,"id":"way/838137634","@id":"way/838137634","AREA":268}},
{"type":"Feature","geometry":{"type":"Polygon","coordinates":[[[35.5452035,33.8856003],[35.545384,33.8853962],[35.5457247,33.8856039],[35.545451,33.8859133],[35.5451072,33.8857037],[35.5452035,33.8856003]]]},"properties":{"fid":5509,"id":"way/838137635","@id":"way/838137635","AREA":1667}},
{"type":"Feature","geometry":{"type":"Polygon","coordinates":[[[35.5457631,33.8858564],[35.5459079,33.8856939],[35.5461137,33.8858203],[35.5459689,33.8859828],[35.5457631,33.8858564]]]},"properties":{"fid":5510,"id":"way/838137636","@id":"way/838137636","AREA":531}},
{"type":"Feature","geometry":null,"properties":{"fid":5670,"id":"way/838185667","@id":"way/838185667","AREA":119}},
{"type":"Feature","geometry":null,"properties":{"fid":5672,"id":"way/838187657","@id":"way/838187657","AREA":120}},
{"type":"Feature","geometry":null,"properties":{"fid":5673,"id":"way/838187658","@id":"way/838187658","AREA":66}},
{"type":"Feature","geometry":null,"properties":{"fid":5674,"id":"way/838187659","@id":"way/838187659","AREA":15}},
{"type":"Feature","geometry":null,"properties":{"fid":5677,"id":"way/838187662","@id":"way/838187662","AREA":103}},
{"type":"Feature","geometry":null,"properties":{"fid":5679,"id":"way/838187664","@id":"way/838187664","AREA":162}},
{"type":"Feature","geometry":null,"properties":{"fid":5680,"id":"way/838187665","@id":"way/838187665","AREA":112}},
{"type":"Feature","geometry":null,"properties":{"fid":5681,"id":"way/838187666","@id":"way/838187666","AREA":132}},
{"type":"Feature","geometry":null,"properties":{"fid":5682,"id":"way/838187667","@id":"way/838187667","AREA":114}},
{"type":"Feature","geometry":null,"properties":{"fid":5683,"id":"way/838187668","@id":"way/838187668","AREA":161}},
{"type":"Feature","geometry":{"type":"Polygon","coordinates":[[[35.5436608,33.8869386],[35.5437034,33.8870476],[35.5434819,33.8871073],[35.5434392,33.8869982],[35.5436608,33.8869386]]]},"properties":{"fid":5684,"id":"way/838187669","@id":"way/838187669","AREA":274}},
{"type":"Feature","geometry":{"type":"Polygon","coordinates":[[[35.543708,33.8870509],[35.5437608,33.8871918],[35.5435242,33.8872374],[35.5434767,33.8871106],[35.543708,33.8870509]]]},"properties":{"fid":5685,"id":"way/838187670","@id":"way/838187670","AREA":359}},
{"type":"Feature","geometry":null,"properties":{"fid":5686,"id":"way/838187671","@id":"way/838187671","AREA":45}},
{"type":"Feature","geometry":{"type":"Polygon","coordinates":[[[35.5430542,33.8858676],[35.5430319,33.886078],[35.5429292,33.8860869],[35.5428718,33.8859445],[35.5430542,33.8858676]]]},"properties":{"fid":5995,"id":"way/838289861","@id":"way/838289861","AREA":259}},
{"type":"Feature","geometry":null,"properties":{"fid":5996,"id":"way/838289862","@id":"way/838289862","AREA":41}},
{"type":"Feature","geometry":null,"properties":{"fid":5997,"id":"way/838289863","@id":"way/838289863","AREA":82}},
{"type":"Feature","geometry":null,"properties":{"fid":5998,"id":"way/838289864","@id":"way/838289864","AREA":23}},
{"type":"Feature","geometry":null,"properties":{"fid":6085,"id":"way/838432028","@id":"way/838432028","AREA":179}},
{"type":"Feature","geometry":null,"properties":{"fid":6086,"id":"way/838432029","@id":"way/838432029","AREA":29}},
{"type":"Feature","geometry":null,"properties":{"fid":6087,"id":"way/838432030","@id":"way/838432030","AREA":18}},
{"type":"Feature","geometry":null,"properties":{"fid":6088,"id":"way/838432031","@id":"way/838432031","AREA":26}},
{"type":"Feature","geometry":null,"properties":{"fid":6089,"id":"way/838432032","@id":"way/838432032","AREA":11}},
{"type":"Feature","geometry":null,"properties":{"fid":6090,"id":"way/838432033","@id":"way/838432033","AREA":41}},
{"type":"Feature","geometry":{"type":"Polygon","coordinates":[[[35.5433093,33.8861025],[35.5432347,33.8862821],[35.5431004,33.8862436],[35.5433093,33.8861025]]]},"properties":{"fid":6091,"id":"way/838432034","@id":"way/838432034","AREA":149}},
{"type":"Feature","geometry":null,"properties":{"fid":6092,"id":"way/838432035","@id":"way/838432035","AREA":26}},
{"type":"Feature","geometry":null,"properties":{"fid":6093,"id":"way/838432036","@id":"way/838432036","AREA":42}},
{"type":"Feature","geometry":null,"properties":{"fid":6245,"id":"way/839223592","@id":"way/839223592","AREA":32}},
{"type":"Feature","geometry":null,"properties":{"fid":6246,"id":"way/839223593","@id":"way/839223593","AREA":41}},
{"type":"Feature","geometry":null,"properties":{"fid":6247,"id":"way/839223594","@id":"way/839223594","AREA":44}},
{"type":"Feature","geometry":null,"properties":{"fid":6248,"id":"way/839223595","@id":"way/839223595","AREA":31}},
{"type":"Feature","geometry":null,"properties":{"fid":6249,"id":"way/839223596","@id":"way/839223596","AREA":34}},
{"type":"Feature","geometry":null,"properties":{"fid":6250,"id":"way/839223597","@id":"way/839223597","AREA":65}},
{"type":"Feature","geometry":{"type":"Polygon","coordinates":[[[35.5433915,33.8880152],[35.5434628,33.8882404],[35.5432761,33.8882811],[35.5432283,33.8880508],[35.5433915,33.8880152]]]},"properties":{"fid":6264,"id":"way/839224714","@id":"way/839224714","AREA":420}},
{"type":"Feature","geometry":null,"properties":{"fid":6265,"id":"way/839224715","@id":"way/839224715","AREA":129}},
{"type":"Feature","geometry":null,"properties":{"fid":6266,"id":"way/839224716","@id":"way/839224716","AREA":68}},
{"type":"Feature","geometry":null,"properties":{"fid":6267,"id":"way/839224717","@id":"way/839224717","AREA":94}},
{"type":"Feature","geometry":null,"properties":{"fid":6268,"id":"way/839224718","@id":"way/839224718","AREA":53}},
{"type":"Feature","geometry":null,"properties":{"fid":6269,"id":"way/839224719","@id":"way/839224719","AREA":65}},
{"type":"Feature","geometry":null,"properties":{"fid":6270,"id":"way/839224720","@id":"way/839224720","AREA":88}},
{"type":"Feature","geometry":null,"properties":{"fid":6271,"id":"way/839224721","@id":"way/839224721","AREA":48}},
{"type":"Feature","geometry":null,"properties":{"fid":6272,"id":"way/839224722","@id":"way/839224722","AREA":51}},
{"type":"Feature","geometry":null,"properties":{"fid":6273,"id":"way/839224723","@id":"way/839224723","AREA":69}},
{"type":"Feature","geometry":null,"properties":{"fid":6274,"id":"way/839224724","@id":"way/839224724","AREA":19}},
{"type":"Feature","geometry":null,"properties":{"fid":6275,"id":"way/839224725","@id":"way/839224725","AREA":20}},
{"type":"Feature","geometry":null,"properties":{"fid":6276,"id":"way/839224726","@id":"way/839224726","AREA":9}},
{"type":"Feature","geometry":null,"properties":{"fid":6277,"id":"way/839224824","@id":"way/839224824","AREA":86}},
{"type":"Feature","geometry":null,"properties":{"fid":6278,"id":"way/839225036","@id":"way/839225036","AREA":38}},
{"type":"Feature","geometry":null,"properties":{"fid":6279,"id":"way/839225037","@id":"way/839225037","AREA":24}},
{"type":"Feature","geometry":null,"properties":{"fid":6280,"id":"way/839225038","@id":"way/839225038","AREA":23}},
{"type":"Feature","geometry":{"type":"Polygon","coordinates":[[[35.5432812,33.8877235],[35.5433763,33.8880129],[35.5432494,33.8880416],[35.5431504,33.8877531],[35.5432812,33.8877235]]]},"properties":{"fid":6281,"id":"way/839225450","@id":"way/839225450","AREA":430}},
{"type":"Feature","geometry":{"type":"Polygon","coordinates":[[[35.5432205,33.8875454],[35.5432748,33.8877172],[35.5431352,33.8877476],[35.5430942,33.8875729],[35.5432205,33.8875454]]]},"properties":{"fid":6282,"id":"way/839225451","@id":"way/839225451","AREA":252}},
{"type":"Feature","geometry":null,"properties":{"fid":6283,"id":"way/839225452","@id":"way/839225452","AREA":68}},
{"type":"Feature","geometry":null,"properties":{"fid":6284,"id":"way/839225453","@id":"way/839225453","AREA":16}},
{"type":"Feature","geometry":null,"properties":{"fid":6285,"id":"way/839225454","@id":"way/839225454","AREA":12}},
{"type":"Feature","geometry":null,"properties":{"fid":6286,"id":"way/839225455","@id":"way/839225455","AREA":17}},
{"type":"Feature","geometry":{"type":"Polygon","coordinates":[[[35.5437565,33.8872031],[35.5438307,33.8873404],[35.5436681,33.8873816],[35.5436297,33.8872773],[35.5437565,33.8872031]]]},"properties":{"fid":6287,"id":"way/839225456","@id":"way/839225456","AREA":264}},
{"type":"Feature","geometry":null,"properties":{"fid":6564,"id":"way/845443708","@id":"way/845443708","AREA":43}},
{"type":"Feature","geometry":null,"properties":{"fid":6565,"id":"way/845443709","@id":"way/845443709","AREA":26}},
{"type":"Feature","geometry":{"type":"Polygon","coordinates":[[[35.5469218,33.8863641],[35.5466331,33.8862011],[35.5467367,33.8860747],[35.5470254,33.8862377],[35.5469218,33.8863641]]]},"properties":{"fid":6601,"id":"way/845715401","@id":"way/845715401","AREA":548}},
{"type":"Feature","geometry":null,"properties":{"fid":6602,"id":"way/845715402","@id":"way/845715402","AREA":47}},
{"type":"Feature","geometry":null,"properties":{"fid":6603,"id":"way/845715403","@id":"way/845715403","AREA":8}},
{"type":"Feature","geometry":{"type":"Polygon","coordinates":[[[35.5464009,33.8852069],[35.5466247,33.8852452],[35.5465034,33.8853933],[35.5462727,33.885263],[35.5464009,33.8852069]]]},"properties":{"fid":6604,"id":"way/845715404","@id":"way/845715404","AREA":462}},
{"type":"Feature","geometry":null,"properties":{"fid":6605,"id":"way/845715405","@id":"way/845715405","AREA":145}},
{"type":"Feature","geometry":{"type":"Polygon","coordinates":[[[35.5466951,33.885872],[35.5467815,33.8857668],[35.5468829,33.8858242],[35.5467965,33.8859294],[35.5466951,33.885872]]]},"properties":{"fid":6606,"id":"way/845715407","@id":"way/845715407","AREA":160}},
{"type":"Feature","geometry":null,"properties":{"fid":6607,"id":"way/845716302","@id":"way/845716302","AREA":79}},
{"type":"Feature","geometry":{"type":"Polygon","coordinates":[[[35.5448914,33.8864012],[35.5451492,33.886557],[35.5448873,33.8867475],[35.5447653,33.8864847],[35.5448914,33.8864012]]]},"properties":{"fid":6611,"id":"way/845719687","@id":"way/845719687","AREA":728}},
{"type":"Feature","geometry":null,"properties":{"fid":6612,"id":"way/845719688","@id":"way/845719688","AREA":130}},
{"type":"Feature","geometry":null,"properties":{"fid":6613,"id":"way/845719689","@id":"way/845719689","AREA":23}},
{"type":"Feature","geometry":null,"properties":{"fid":6614,"id":"way/845719690","@id":"way/845719690","AREA":55}},
{"type":"Feature","geometry":null,"properties":{"fid":6615,"id":"way/845753857","@id":"way/845753857","AREA":34}},
{"type":"Feature","geometry":null,"properties":{"fid":6616,"id":"way/845753858","@id":"way/845753858","AREA":41}},
{"type":"Feature","geometry":null,"properties":{"fid":6617,"id":"way/845753859","@id":"way/845753859","AREA":46}},
{"type":"Feature","geometry":null,"properties":{"fid":6618,"id":"way/845753860","@id":"way/845753860","AREA":29}},
{"type":"Feature","geometry":null,"properties":{"fid":6619,"id":"way/845753862","@id":"way/845753862","AREA":41}},
{"type":"Feature","geometry":null,"properties":{"fid":6620,"id":"way/845753863","@id":"way/845753863","AREA":8}},
{"type":"Feature","geometry":null,"properties":{"fid":6621,"id":"way/845753864","@id":"way/845753864","AREA":12}},
{"type":"Feature","geometry":null,"properties":{"fid":6622,"id":"way/845753865","@id":"way/845753865","AREA":78}},
{"type":"Feature","geometry":null,"properties":{"fid":6623,"id":"way/845753866","@id":"way/845753866","AREA":15}},
{"type":"Feature","geometry":null,"properties":{"fid":6624,"id":"way/845753867","@id":"way/845753867","AREA":49}},
{"type":"Feature","geometry":null,"properties":{"fid":6625,"id":"way/845753868","@id":"way/845753868","AREA":73}},
{"type":"Feature","geometry":null,"properties":{"fid":6626,"id":"way/845753869","@id":"way/845753869","AREA":69}},
{"type":"Feature","geometry":null,"properties":{"fid":6629,"id":"way/845755028","@id":"way/845755028","AREA":29}},
{"type":"Feature","geometry":null,"properties":{"fid":6630,"id":"way/845755029","@id":"way/845755029","AREA":49}},
{"type":"Feature","geometry":null,"properties":{"fid":6725,"id":"way/845811373","@id":"way/845811373","AREA":56}},
{"type":"Feature","geometry":null,"properties":{"fid":6726,"id":"way/845811374","@id":"way/845811374","AREA":105}},
{"type":"Feature","geometry":null,"properties":{"fid":6729,"id":"way/845825326","@id":"way/845825326","AREA":84}},
{"type":"Feature","geometry":null,"properties":{"fid":6733,"id":"way/845825330","@id":"way/845825330","AREA":131}},
{"type":"Feature","geometry":null,"properties":{"fid":6734,"id":"way/845825331","@id":"way/845825331","AREA":151}},
{"type":"Feature","geometry":null,"properties":{"fid":6735,"id":"way/845825332","@id":"way/845825332","AREA":57}},
{"type":"Feature","geometry":null,"properties":{"fid":6737,"id":"way/845827587","@id":"way/845827587","AREA":28}},
{"type":"Feature","geometry":null,"properties":{"fid":6784,"id":"way/846151262","@id":"way/846151262","AREA":11}},
{"type":"Feature","geometry":null,"properties":{"fid":6785,"id":"way/846151263","@id":"way/846151263","AREA":15}},
{"type":"Feature","geometry":null,"properties":{"fid":6786,"id":"way/846151264","@id":"way/846151264","AREA":13}},
{"type":"Feature","geometry":null,"properties":{"fid":6787,"id":"way/846151265","@id":"way/846151265","AREA":58}},
{"type":"Feature","geometry":null,"properties":{"fid":6788,"id":"way/846200991","@id":"way/846200991","AREA":23}},
{"type":"Feature","geometry":null,"properties":{"fid":6789,"id":"way/846200992","@id":"way/846200992","AREA":23}},
{"type":"Feature","geometry":null,"properties":{"fid":6790,"id":"way/846200993","@id":"way/846200993","AREA":56}},
{"type":"Feature","geometry":null,"properties":{"fid":6791,"id":"way/846201944","@id":"way/846201944","AREA":40}},
{"type":"Feature","geometry":null,"properties":{"fid":6792,"id":"way/846201945","@id":"way/846201945","AREA":29}},
{"type":"Feature","geometry":null,"properties":{"fid":6793,"id":"way/846201946","@id":"way/846201946","AREA":9}},
{"type":"Feature","geometry":null,"properties":{"fid":6794,"id":"way/846201947","@id":"way/846201947","AREA":31}},
{"type":"Feature","geometry":null,"properties":{"fid":6881,"id":"way/894162166","@id":"way/894162166","AREA":87}},
{"type":"Feature","geometry":{"type":"Polygon","coordinates":[[[35.5449082,33.8856042],[35.5450039,33.8854795],[35.5451609,33.8855626],[35.5450652,33.8856873],[35.5449082,33.8856042]]]},"properties":{"fid":6982,"id":"way/1188442997","@id":"way/1188442997","AREA":282}}
]}