{"type":"FeatureCollection", "features": [
{"type":"Feature","geometry":null,"properties":{"fid":28,"id":"way/261581992","@id":"way/261581992","AREA":808}},
{"type":"Feature","geometry":{"type":"Polygon","coordinates":[[[35.5478608,33.8870379],[35.5475348,33.8868223],[35.54772,33.8867485],[35.5479672,33.886967],[35.5481989,33.8867416],[35.5480131,33.886645],[35.5481294,33.8864947],[35.5484335,33.8866673],[35.548331,33.8871432],[35.5482095,33.8872862],[35.5478608,33.8870379]]]},"properties":{"fid":76,"id":"way/497658938","@id":"way/497658938","AREA":2835}},
{"type":"Feature","geometry":null,"properties":{"fid":529,"id":"way/616650898","@id":"way/616650898","AREA":184}},
{"type":"Feature","geometry":{"type":"Polygon","coordinates":[[[35.5449504,33.8868335],[35.545178,33.8865542],[35.5454303,33.8866959],[35.5452027,33.8869752],[35.5449504,33.8868335]]]},"properties":{"fid":1030,"id":"way/751378731","@id":"way/751378731","AREA":1054}},
{"type":"Feature","geometry":null,"properties":{"fid":1032,"id":"way/751378733","@id":"way/751378733","AREA":353}},
{"type":"Feature","geometry":{"type":"Polygon","coordinates":[[[35.5432433,33.8868134],[35.5431641,33.8866256],[35.5433671,33.8865667],[35.5434462,33.8867544],[35.5432433,33.8868134]]]},"properties":{"fid":1067,"id":"way/814610908","@id":"way/814610908","AREA":439}},
{"type":"Feature","geometry":null,"properties":{"fid":2139,"id":"way/836222640","@id":"way/836222640","AREA":188}},
{"type":"Feature","geometry":null,"properties":{"fid":2931,"id":"way/836741588","@id":"way/836741588","AREA":906}},
{"type":"Feature","geometry":null,"properties":{"fid":3012,"id":"way/836763380","@id":"way/836763380","AREA":209}},
{"type":"Feature","geometry":null,"properties":{"fid":3399,"id":"way/837029212","@id":"way/837029212","AREA":353}},
{"type":"Feature","geometry":null,"properties":{"fid":3400,"id":"way/837029213","@id":"way/837029213","AREA":64}},
{"type":"Feature","geometry":null,"properties":{"fid":3451,"id":"way/837044611","@id":"way/837044611","AREA":208}},
{"type":"Feature","geometry":{"type":"Polygon","coordinates":[[[35.5421441,33.8886212],[35.542112,33.8885143],[35.5425465,33.8883986],[35.5425787,33.8885121],[35.5421441,33.8886212]]]},"properties":{"fid":5289,"id":"way/837976557","@id":"way/837976557","AREA":534}},
{"type":"Feature","geometry":null,"properties":{"fid":5290,"id":"way/837976558","@id":"way/837976558","AREA":275}},
{"type":"Feature","geometry":null,"properties":{"fid":5300,"id":"way/837976577","@id":"way/837976577","AREA":270}},
{"type":"Feature","geometry":null,"properties":{"fid":5303,"id":"way/837976581","@id":"way/837976581","AREA":303}},
{"type":"Feature","geometry":null,"properties":{"fid":5304,"id":"way/839224715","@id":"way/839224715","AREA":129}},
{"type":"Feature","geometry":null,"properties":{"fid":5305,"id":"way/837345199","@id":"way/837345199","AREA":74}},
{"type":"Feature","geometry":{"type":"Polygon","coordinates":[[[35.5453564,33.8869623],[35.5455191,33.8867645],[35.545992,33.8870327],[35.5458265,33.8870797],[35.5455133,33.8869021],[35.5453564,33.8869623]]]},"properties":{"fid":5306,"id":"way/751378732","@id":"way/751378732","AREA":747}},
{"type":"Feature","geometry":{"type":"Polygon","coordinates":[[[35.5370649,33.8925842],[35.5370411,33.8924461],[35.5373385,33.8923951],[35.537365,33.8925485],[35.5370649,33.8925842]]]},"properties":{"fid":5307,"id":"way/569682326","@id":"way/569682326","AREA":473}},
{"type":"Feature","geometry":null,"properties":{"fid":5308,"id":"way/569682328","@id":"way/569682328","AREA":631}},
{"type":"Feature","geometry":{"type":"Polygon","coordinates":[[[35.53903945427345,33.89004930220151],[35.5394963,33.890032],[35.539531,33.8902426],[35.5390879,33.8902594],[35.53903945427345,33.89004930220151]]]},"properties":{"fid":5309,"id":"way/616650900","@id":"way/616650900","AREA":1030}},
{"type":"Feature","geometry":null,"properties":{"fid":5310,"id":"way/642094195","@id":"way/642094195","AREA":119}},
{"type":"Feature","geometry":{"type":"Polygon","coordinates":[[[35.5395327,33.890334],[35.5395914,33.8905925],[35.5394011,33.8906035],[35.5393794,33.8903428],[35.5395327,33.890334]]]},"properties":{"fid":5311,"id":"way/751378735","@id":"way/751378735","AREA":569}},
{"type":"Feature","geometry":{"type":"Polygon","coordinates":[[[35.5404709,33.8926918],[35.5403535,33.8926314],[35.5401928,33.892147],[35.5403506,33.8921174],[35.5404709,33.8926918]]]},"properties":{"fid":5312,"id":"way/834620688","@id":"way/834620688","AREA":911}},
{"type":"Feature","geometry":null,"properties":{"fid":5313,"id":"way/835330631","@id":"way/835330631","AREA":185}},
{"type":"Feature","geometry":null,"properties":{"fid":5314,"id":"way/835330655","@id":"way/835330655","AREA":379}},
{"type":"Feature","geometry":null,"properties":{"fid":5315,"id":"way/835330659","@id":"way/835330659","AREA":336}},
{"type":"Feature","geometry":null,"properties":{"fid":5316,"id":"way/835756644","@id":"way/835756644","AREA":98}},
{"type":"Feature","geometry":null,"properties":{"fid":5317,"id":"way/835809710","@id":"way/835809710","AREA":320}},
{"type":"Feature","geometry":null,"properties":{"fid":5318,"id":"way/836031264","@id":"way/836031264","AREA":248}},
{"type":"Feature","geometry":null,"properties":{"fid":5319,"id":"way/836200201","@id":"way/836200201","AREA":284}},
{"type":"Feature","geometry":null,"properties":{"fid":5320,"id":"way/836220619","@id":"way/836220619","AREA":291}},
{"type":"Feature","geometry":null,"properties":{"fid":5321,"id":"way/836373735","@id":"way/836373735","AREA":114}},
{"type":"Feature","geometry":null,"properties":{"fid":5322,"id":"way/837021950","@id":"way/837021950","AREA":32}},
{"type":"Feature","geometry":null,"properties":{"fid":5323,"id":"way/837359922","@id":"way/837359922","AREA":123}},
{"type":"Feature","geometry":null,"properties":{"fid":5324,"id":"way/837605148","@id":"way/837605148","AREA":182}},
{"type":"Feature","geometry":null,"properties":{"fid":5325,"id":"way/837636291","@id":"way/837636291","AREA":394}},
{"type":"Feature","geometry":null,"properties":{"fid":5326,"id":"way/838434296","@id":"way/838434296","AREA":295}},
{"type":"Feature","geometry":null,"properties":{"fid":5327,"id":"way/845136924","@id":"way/845136924","AREA":373}},
{"type":"Feature","geometry":null,"properties":{"fid":5328,"id":"way/845290061","@id":"way/845290061","AREA":41}},
{"type":"Feature","geometry":null,"properties":{"fid":5329,"id":"way/835330650","@id":"way/835330650","AREA":168}},
{"type":"Feature","geometry":{"type":"Polygon","coordinates":[[[35.5386533,33.8904178],[35.5386436,33.8902592],[35.5390495,33.890242],[35.5390564,33.8903543],[35.5386533,33.8904178]]]},"properties":{"fid":5330,"id":"way/616650902","@id":"way/616650902","AREA":538}},
{"type":"Feature","geometry":null,"properties":{"fid":5331,"id":"way/837074065","@id":"way/837074065","AREA":288}},
{"type":"Feature","geometry":{"type":"Polygon","coordinates":[[[35.5391352,33.890652],[35.5391441,33.8907608],[35.5387346,33.8907837],[35.5387256,33.8906748],[35.5391352,33.890652]]]},"properties":{"fid":5332,"id":"way/837079562","@id":"way/837079562","AREA":518}},
{"type":"Feature","geometry":null,"properties":{"fid":5333,"id":"way/837079564","@id":"way/837079564","AREA":132}},
{"type":"Feature","geometry":null,"properties":{"fid":5334,"id":"way/837079566","@id":"way/837079566","AREA":242}},
{"type":"Feature","geometry":null,"properties":{"fid":5335,"id":"way/645605982","@id":"way/645605982","AREA":174}},
{"type":"Feature","geometry":null,"properties":{"fid":5336,"id":"way/836503522","@id":"way/836503522","AREA":222}},
{"type":"Feature","geometry":{"type":"Polygon","coordinates":[[[35.543806,33.8918541],[35.5438948,33.8920877],[35.5437293,33.8921339],[35.5436465,33.8919028],[35.543806,33.8918541]]]},"properties":{"fid":5337,"id":"way/837356079","@id":"way/837356079","AREA":533}},
{"type":"Feature","geometry":null,"properties":{"fid":5338,"id":"way/845444691","@id":"way/845444691","AREA":200}},
{"type":"Feature","geometry":{"type":"Polygon","coordinates":[[[35.5459091,33.8937098],[35.5461227,33.8936944],[35.5461438,33.8938967],[35.5459302,33.893912],[35.5459091,33.8937098]]]},"properties":{"fid":5339,"id":"way/968889064","@id":"way/968889064","AREA":447}},
{"type":"Feature","geometry":{"type":"Polygon","coordinates":[[[35.5298860365787,33.892984713269556],[35.52995985673773,33.893265545615726],[35.52969200043467,33.89328122885966],[35.5298860365787,33.892984713269556]]]},"properties":{"fid":5340,"id":null,"@id":null,"AREA":864}},
{"type":"Feature","geometry":null,"properties":{"fid":5341,"id":null,"@id":null,"AREA":185}},
{"type":"Feature","geometry":null,"properties":{"fid":5342,"id":null,"@id":null,"AREA":169}},
{"type":"Feature","geometry":{"type":"Polygon","coordinates":[[[35.53056833233306,33.8942239618781],[35.53057013516402,33.89457873778145],[35.53046846858962,33.89460772392691],[35.5303163798578,33.894146944551586],[35.53083661257864,33.893975453981064],[35.530616771853836,33.89420866644481],[35.53056833233306,33.8942239618781]]]},"properties":{"fid":5343,"id":null,"@id":null,"AREA":1169}},
{"type":"Feature","geometry":{"type":"Polygon","coordinates":[[[35.530166176905354,33.894626238331725],[35.529717726295864,33.89470849496234],[35.52967602368766,33.894544403653036],[35.53012834872392,33.89445510202563],[35.530166176905354,33.894626238331725]]]},"properties":{"fid":5344,"id":null,"@id":null,"AREA":810}},
{"type":"Feature","geometry":{"type":"Polygon","coordinates":[[[35.528964457423136,33.89448466055562],[35.529106336049466,33.89488743151503],[35.52890542688051,33.89497735198173],[35.52875705633454,33.89453447961264],[35.528964457423136,33.89448466055562]]]},"properties":{"fid":5345,"id":null,"@id":null,"AREA":907}},
{"type":"Feature","geometry":null,"properties":{"fid":5346,"id":null,"@id":null,"AREA":458}},
{"type":"Feature","geometry":null,"properties":{"fid":5347,"id":null,"@id":null,"AREA":364}},
{"type":"Feature","geometry":null,"properties":{"fid":5348,"id":null,"@id":null,"AREA":149}},
{"type":"Feature","geometry":null,"properties":{"fid":5349,"id":null,"@id":null,"AREA":128}},
{"type":"Feature","geometry":null,"properties":{"fid":5350,"id":null,"@id":null,"AREA":1101}},
{"type":"Feature","geometry":null,"properties":{"fid":5351,"id":null,"@id":null,"AREA":489}},
{"type":"Feature","geometry":null,"properties":{"fid":5352,"id":null,"@id":null,"AREA":137}},
{"type":"Feature","geometry":{"type":"Polygon","coordinates":[[[35.525989525920586,33.89578377818115],[35.52568125044549,33.89582096243429],[35.5255908649103,33.89564013338682],[35.52569578951985,33.89525042785891],[35.525938654107044,33.895380714952765],[35.525989525920586,33.89578377818115]]]},"properties":{"fid":5353,"id":null,"@id":null,"AREA":2317}},
{"type":"Feature","geometry":{"type":"Polygon","coordinates":[[[35.52316788600846,33.89358744517425],[35.52311914892354,33.89375161719487],[35.522623239739815,33.89377318978483],[35.52264912989823,33.8942255590463],[35.522466379666994,33.89423329629818],[35.522471451814354,33.89362434276195],[35.52316788600846,33.89358744517425]]]},"properties":{"fid":5354,"id":null,"@id":null,"AREA":1917}},
{"type":"Feature","geometry":{"type":"Polygon","coordinates":[[[35.52334707790706,33.893392389378896],[35.5233231104874,33.89331651449957],[35.52398175591749,33.89331534805364],[35.524116879059946,33.89375431881288],[35.52402752557685,33.89391781456307],[35.52336858479971,33.89391957164358],[35.52334707790706,33.893392389378896]]]},"properties":{"fid":5355,"id":null,"@id":null,"AREA":4232}},
{"type":"Feature","geometry":{"type":"Polygon","coordinates":[[[35.52168176232263,33.892116057156464],[35.52188881603774,33.89273942629665],[35.52164258016224,33.89294872129935],[35.5211981523056,33.89317228733057],[35.521093896989235,33.89303424337073],[35.521584783853406,33.89278350756479],[35.52162050707463,33.892710347929],[35.521443336233695,33.89216486468578],[35.52168176232263,33.892116057156464]]]},"properties":{"fid":5356,"id":null,"@id":null,"AREA":2980}},
{"type":"Feature","geometry":{"type":"Polygon","coordinates":[[[35.520477976752794,33.89321956515548],[35.52073092887379,33.893072909702724],[35.52092788886591,33.893348382001705],[35.520477976752794,33.89321956515548]]]},"properties":{"fid":5357,"id":null,"@id":null,"AREA":1041}},
{"type":"Feature","geometry":null,"properties":{"fid":5358,"id":null,"@id":null,"AREA":151}},
{"type":"Feature","geometry":null,"properties":{"fid":5359,"id":null,"@id":null,"AREA":634}},
{"type":"Feature","geometry":null,"properties":{"fid":5360,"id":null,"@id":null,"AREA":103}},
{"type":"Feature","geometry":{"type":"Polygon","coordinates":[[[35.53250419289932,33.89141102817844],[35.532828468138916,33.891364437333046],[35.5328911063102,33.891554863637715],[35.532644245729536,33.89163134433269],[35.53250419289932,33.89141102817844]]]},"properties":{"fid":5361,"id":null,"@id":null,"AREA":661}},
{"type":"Feature","geometry":null,"properties":{"fid":5362,"id":null,"@id":null,"AREA":349}},
{"type":"Feature","geometry":null,"properties":{"fid":5363,"id":null,"@id":null,"AREA":82}},
{"type":"Feature","geometry":{"type":"Polygon","coordinates":[[[35.53057596961085,33.89385999333936],[35.530476247014136,33.89370099589049],[35.530613438312514,33.89343084643497],[35.53083217720187,33.89371101746858],[35.5307172952988,33.89381294849439],[35.53057596961085,33.89385999333936]]]},"properties":{"fid":5364,"id":null,"@id":null,"AREA":1042}},
{"type":"Feature","geometry":{"type":"Polygon","coordinates":[[[35.53083661257864,33.893975453981064],[35.5303163798578,33.894146944551586],[35.530250234353936,33.89396689665994],[35.53057596961085,33.89385999333936],[35.5307172952988,33.89381294849439],[35.53083661257864,33.893975453981064]]]},"properties":{"fid":5365,"id":null,"@id":null,"AREA":1223}},
{"type":"Feature","geometry":{"type":"Polygon","coordinates":[[[35.530616771853836,33.89420866644481],[35.53075633109602,33.89423362857757],[35.53115649527492,33.89411743399979],[35.531222426121495,33.8942753774052],[35.53069497339391,33.89441799460964],[35.53056833233306,33.8942239618781],[35.530616771853836,33.89420866644481]]]},"properties":{"fid":5366,"id":null,"@id":null,"AREA":966}},
{"type":"Feature","geometry":null,"properties":{"fid":5367,"id":null,"@id":null,"AREA":130}},
{"type":"Feature","geometry":{"type":"Polygon","coordinates":[[[35.51395717276552,33.8791539422437],[35.51418354460107,33.878915955442345],[35.514458607801856,33.87910559988479],[35.51423529987219,33.879335711547625],[35.51395717276552,33.8791539422437]]]},"properties":{"fid":5368,"id":null,"@id":null,"AREA":1302}},
{"type":"Feature","geometry":{"type":"Polygon","coordinates":[[[35.51266701486449,33.87897363130076],[35.51250306102703,33.87907297199275],[35.512141833362605,33.87903155941423],[35.51218696268468,33.8788170231561],[35.51268191306604,33.8788674377722],[35.51266701486449,33.87897363130076]]]},"properties":{"fid":5369,"id":null,"@id":null,"AREA":1336}},
{"type":"Feature","geometry":null,"properties":{"fid":5370,"id":null,"@id":null,"AREA":383}},
{"type":"Feature","geometry":{"type":"Polygon","coordinates":[[[35.49926631258276,33.87801416990655],[35.499344671788656,33.87819798022337],[35.49881387058796,33.878007849964575],[35.498913784608646,33.87787293655979],[35.49926631258276,33.87801416990655]]]},"properties":{"fid":5371,"id":null,"@id":null,"AREA":783}},
{"type":"Feature","geometry":null,"properties":{"fid":5372,"id":null,"@id":null,"AREA":123}},
{"type":"Feature","geometry":null,"properties":{"fid":5373,"id":null,"@id":null,"AREA":272}},
{"type":"Feature","geometry":null,"properties":{"fid":5374,"id":null,"@id":null,"AREA":421}},
{"type":"Feature","geometry":null,"properties":{"fid":5375,"id":null,"@id":null,"AREA":242}},
{"type":"Feature","geometry":null,"properties":{"fid":5376,"id":null,"@id":null,"AREA":273}},
{"type":"Feature","geometry":{"type":"Polygon","coordinates":[[[35.48362735316456,33.88242220969226],[35.48385899546587,33.882383723725496],[35.483859916013955,33.88263214984723],[35.48368282138094,33.882647125871586],[35.48362735316456,33.88242220969226]]]},"properties":{"fid":5377,"id":null,"@id":null,"AREA":576}},
{"type":"Feature","geometry":{"type":"Polygon","coordinates":[[[35.48422875814797,33.882483074207315],[35.483901307729234,33.88247958162998],[35.48390125952163,33.882330436809696],[35.48412612119685,33.88226584645041],[35.48422875814797,33.882483074207315]]]},"properties":{"fid":5378,"id":null,"@id":null,"AREA":678}},
{"type":"Feature","geometry":{"type":"Polygon","coordinates":[[[35.506731096318354,33.877005105799405],[35.50675098235347,33.876793314582805],[35.506945038572745,33.876804787878896],[35.506901191336304,33.877014915691426],[35.506731096318354,33.877005105799405]]]},"properties":{"fid":5379,"id":null,"@id":null,"AREA":429}},
{"type":"Feature","geometry":null,"properties":{"fid":5380,"id":null,"@id":null,"AREA":202}},
{"type":"Feature","geometry":null,"properties":{"fid":5381,"id":null,"@id":null,"AREA":454}},
{"type":"Feature","geometry":null,"properties":{"fid":5382,"id":null,"@id":null,"AREA":218}},
{"type":"Feature","geometry":null,"properties":{"fid":5383,"id":null,"@id":null,"AREA":375}},
{"type":"Feature","geometry":null,"properties":{"fid":5384,"id":null,"@id":null,"AREA":706}},
{"type":"Feature","geometry":{"type":"Polygon","coordinates":[[[35.48862922179482,33.88033455618782],[35.48892388368501,33.8801178197058],[35.48903307851285,33.88023382141168],[35.488743007676206,33.88044353579126],[35.48862922179482,33.88033455618782]]]},"properties":{"fid":5385,"id":null,"@id":null,"AREA":605}},
{"type":"Feature","geometry":{"type":"Polygon","coordinates":[[[35.48427496843065,33.88095779694497],[35.484272406122216,33.88077687953715],[35.48482388933324,33.88076887014464],[35.4848471115601,33.88086799709429],[35.484396880385475,33.880866931637115],[35.48427496843065,33.88095779694497]]]},"properties":{"fid":5386,"id":null,"@id":null,"AREA":694}},
{"type":"Feature","geometry":null,"properties":{"fid":5387,"id":null,"@id":null,"AREA":532}},
{"type":"Feature","geometry":null,"properties":{"fid":5388,"id":null,"@id":null,"AREA":354}},
{"type":"Feature","geometry":{"type":"Polygon","coordinates":[[[35.49122860665681,33.87986700355919],[35.49143940655981,33.87981600816668],[35.491527223716695,33.87999711523362],[35.491297236571846,33.880052834658265],[35.49122860665681,33.87986700355919]]]},"properties":{"fid":5389,"id":null,"@id":null,"AREA":458}},
{"type":"Feature","geometry":null,"properties":{"fid":5390,"id":null,"@id":null,"AREA":591}},
{"type":"Feature","geometry":null,"properties":{"fid":5391,"id":null,"@id":null,"AREA":527}},
{"type":"Feature","geometry":null,"properties":{"fid":5392,"id":null,"@id":null,"AREA":440}},
{"type":"Feature","geometry":{"type":"Polygon","coordinates":[[[35.536429104580655,33.89852273336548],[35.53613594319555,33.8986223368194],[35.53551407333132,33.89874152007601],[35.53537130947027,33.89849010542053],[35.53521654019605,33.89846684136315],[35.53513867387947,33.898237258571015],[35.53530988175746,33.89813376055471],[35.53522127532812,33.897873914155824],[35.53582148947663,33.89770159820948],[35.536129030743204,33.89765622453915],[35.53625428565232,33.897908913205995],[35.536429104580655,33.89852273336548]]]},"properties":{"fid":5393,"id":null,"@id":null,"AREA":9856}},
{"type":"Feature","geometry":{"type":"Polygon","coordinates":[[[35.53438367880915,33.89283012683962],[35.53399792056317,33.89220055973234],[35.53427396650859,33.89207563640221],[35.53442141349475,33.892228313730456],[35.534703474759574,33.892683937274484],[35.53438367880915,33.89283012683962]]]},"properties":{"fid":5394,"id":null,"@id":null,"AREA":2652}},
{"type":"Feature","geometry":{"type":"Polygon","coordinates":[[[35.520294538649885,33.87809267998139],[35.52044759283044,33.87804565076457],[35.520642641531325,33.878469699550074],[35.52056820369655,33.87869694643612],[35.520294538649885,33.87809267998139]]]},"properties":{"fid":5395,"id":null,"@id":null,"AREA":1425}},
{"type":"Feature","geometry":null,"properties":{"fid":5396,"id":null,"@id":null,"AREA":212}},
{"type":"Feature","geometry":null,"properties":{"fid":5397,"id":null,"@id":null,"AREA":308}},
{"type":"Feature","geometry":null,"properties":{"fid":5398,"id":null,"@id":null,"AREA":213}},
{"type":"Feature","geometry":null,"properties":{"fid":5399,"id":null,"@id":null,"AREA":350}},
{"type":"Feature","geometry":{"type":"Polygon","coordinates":[[[35.51495393927245,33.87796272679752],[35.51517481407339,33.87811075950037],[35.51510939029007,33.8783275314371],[35.514724772978745,33.878582478724425],[35.51449938121277,33.878432998465],[35.51495393927245,33.87796272679752]]]},"properties":{"fid":5400,"id":null,"@id":null,"AREA":2247}},
{"type":"Feature","geometry":null,"properties":{"fid":5401,"id":null,"@id":null,"AREA":501}},
{"type":"Feature","geometry":{"type":"Polygon","coordinates":[[[35.506362932318176,33.87637678332121],[35.50701757850959,33.87631956083619],[35.507110817355844,33.87639414930309],[35.50708062804221,33.876814437108166],[35.506968575460796,33.87680903935518],[35.50700815780096,33.876416770820754],[35.506362932318176,33.87637678332121]]]},"properties":{"fid":5402,"id":null,"@id":null,"AREA":1601}},
{"type":"Feature","geometry":{"type":"Polygon","coordinates":[[[35.50635684974111,33.87678771068327],[35.50659284084405,33.87678333240587],[35.50657164520146,33.876998441031496],[35.50635205818748,33.876981598515435],[35.50635684974111,33.87678771068327]]]},"properties":{"fid":5403,"id":null,"@id":null,"AREA":525}},
{"type":"Feature","geometry":null,"properties":{"fid":5404,"id":null,"@id":null,"AREA":214}},
{"type":"Feature","geometry":null,"properties":{"fid":5405,"id":null,"@id":null,"AREA":362}},
{"type":"Feature","geometry":null,"properties":{"fid":5406,"id":null,"@id":null,"AREA":540}},
{"type":"Feature","geometry":{"type":"Polygon","coordinates":[[[35.50635205818748,33.876981598515435],[35.50600354583256,33.876996585808314],[35.50600570476113,33.87699227379304],[35.505982535610535,33.876811155101315],[35.50635684974111,33.87678771068327],[35.50635205818748,33.876981598515435]]]},"properties":{"fid":5407,"id":null,"@id":null,"AREA":806}},
{"type":"Feature","geometry":null,"properties":{"fid":5408,"id":null,"@id":null,"AREA":303}},
{"type":"Feature","geometry":null,"properties":{"fid":5409,"id":null,"@id":null,"AREA":216}},
{"type":"Feature","geometry":null,"properties":{"fid":5410,"id":null,"@id":null,"AREA":425}},
{"type":"Feature","geometry":{"type":"Polygon","coordinates":[[[35.5192932539737,33.878651165335995],[35.51901173386093,33.87791732669176],[35.5188228212248,33.877609169067235],[35.519348755298985,33.87744524033999],[35.519637927064174,33.8781687086073],[35.5198204683941,33.878484170869285],[35.5192932539737,33.878651165335995]]]},"properties":{"fid":5411,"id":null,"@id":null,"AREA":6541}},
{"type":"Feature","geometry":null,"properties":{"fid":5412,"id":null,"@id":null,"AREA":320}},
{"type":"Feature","geometry":{"type":"Polygon","coordinates":[[[35.51717971778467,33.878069352947165],[35.51703013363041,33.87805479345299],[35.51683185200949,33.878227016288356],[35.516704910900806,33.87800760589897],[35.51706531444182,33.87784941800572],[35.51717971778467,33.878069352947165]]]},"properties":{"fid":5413,"id":null,"@id":null,"AREA":923}},
{"type":"Feature","geometry":null,"properties":{"fid":5414,"id":null,"@id":null,"AREA":397}},
{"type":"Feature","geometry":{"type":"Polygon","coordinates":[[[35.52129294354401,33.87916337614887],[35.52145203167023,33.87908971846786],[35.52136281293547,33.87890575813041],[35.521515753537656,33.87858247595754],[35.5218715131512,33.878508905565816],[35.5221534243137,33.87863974010657],[35.522232480089194,33.87895685897147],[35.52209585299815,33.87914277995888],[35.521880583424945,33.87922663448098],[35.52129294354401,33.87916337614887]]]},"properties":{"fid":5415,"id":null,"@id":null,"AREA":5533}},
{"type":"Feature","geometry":null,"properties":{"fid":5416,"id":null,"@id":null,"AREA":466}},
{"type":"Feature","geometry":null,"properties":{"fid":5417,"id":null,"@id":null,"AREA":171}},
{"type":"Feature","geometry":null,"properties":{"fid":5418,"id":null,"@id":null,"AREA":215}},
{"type":"Feature","geometry":{"type":"Polygon","coordinates":[[[35.4988225691868,33.87841631946521],[35.49861768090748,33.87845076072307],[35.49855607124208,33.87813196861931],[35.498760040739214,33.878098886776556],[35.4988225691868,33.87841631946521]]]},"properties":{"fid":5419,"id":null,"@id":null,"AREA":659}},
{"type":"Feature","geometry":null,"properties":{"fid":5420,"id":null,"@id":null,"AREA":348}},
{"type":"Feature","geometry":{"type":"Polygon","coordinates":[[[35.52002989534881,33.87700267288357],[35.52029520581482,33.877136377816456],[35.52001889447779,33.877450972899304],[35.5199090103208,33.87715469376469],[35.52002989534881,33.87700267288357]]]},"properties":{"fid":5421,"id":null,"@id":null,"AREA":837}},
{"type":"Feature","geometry":{"type":"Polygon","coordinates":[[[35.51413960190494,33.879767969911825],[35.51507837554945,33.88035576320723],[35.51507494812169,33.88040279100747],[35.51410857949112,33.880764525792245],[35.51408004510819,33.88070508908802],[35.51440840417606,33.88035028484261],[35.513940349811534,33.8799727811281],[35.51413960190494,33.879767969911825]]]},"properties":{"fid":5422,"id":null,"@id":null,"AREA":5110}},
{"type":"Feature","geometry":{"type":"Polygon","coordinates":[[[35.53630536861121,33.895861067297616],[35.5364528521406,33.896190412907636],[35.53618075292856,33.896264032766986],[35.536047129040696,33.89593175341448],[35.53630536861121,33.895861067297616]]]},"properties":{"fid":5423,"id":null,"@id":null,"AREA":1046}}
]}