{"type":"FeatureCollection", "features": [
{"type":"Feature","geometry":{"type":"Polygon","coordinates":[[[35.5073910596978,33.8937307535808],[35.5070912607241,33.893636845427],[35.5071272605328,33.8933123049632],[35.5074773698696,33.8933015664492],[35.5073910596978,33.8937307535808]]]},"properties":{"fid":1,"OBJECTID_1":1,"OBJECTID":15558,"PID":"Sa_1046","POINT_X":731858.6639,"POINT_Y":3753176.3804,"dip":0,"area":1593,"G_name":"Place Debbas","case_":"Garden","owner":3,"GlobalID":"375dd486-edca-4101-a237-e8841abb329b","Shape__Area":1.55183442984708e-7,"Shape__Length":0.00165142211077147,"CreationDate":"2022-03-11T12:43:15.833","Creator":"st63_AUB","EditDate":"2022-04-27T15:58:24.557","Editor":"st63_AUB","Ar_Name":"ساحة دباس"}},
{"type":"Feature","geometry":{"type":"Polygon","coordinates":[[[35.4875093304767,33.8867683715086],[35.4869221440376,33.8868187663788],[35.4866246208059,33.8859321461717],[35.4873094942917,33.8858390966139],[35.487370934765,33.8858920363099],[35.4874997956002,33.8863908199531],[35.4875093304767,33.8867683715086]]]},"properties":{"fid":3,"OBJECTID_1":3,"OBJECTID":8470,"PID":"Mo_202","POINT_X":729993.2546,"POINT_Y":3752352.1586,"dip":0,"area":6562,"G_name":"Hassan Khaled Park","case_":"Garden","owner":1,"GlobalID":"b486dff1-31cc-4eb1-8d6a-93d978effe6e","Shape__Area":6.3915467762854e-7,"Shape__Length":0.00322167548270739,"CreationDate":"2022-03-11T12:43:15.833","Creator":"st63_AUB","EditDate":"2022-04-27T15:57:13.695","Editor":"st63_AUB","Ar_Name":"حديقة المفتي حسن خالد"}},
{"type":"Feature","geometry":{"type":"Polygon","coordinates":[[[35.4908166939846,33.8944272811629],[35.4894206083201,33.894354281608],[35.4893375666206,33.8942635951498],[35.4894289227918,33.8930558135982],[35.4910685258246,33.8931340163857],[35.4909872625777,33.8942750169925],[35.4908166939846,33.8944272811629]]]},"properties":{"fid":4,"OBJECTID_1":4,"OBJECTID":16848,"PID":"Mo_2003","POINT_X":730278.2142,"POINT_Y":3753166.1718,"dip":0,"area":21894,"G_name":"Sanayeh Park","case_":"Garden","owner":2,"GlobalID":"6ab32614-3f40-410a-a02c-9c471eb9349d","Shape__Area":0.00000213282032746065,"Shape__Length":0.00577274143096802,"CreationDate":"2022-03-11T12:43:15.833","Creator":"st63_AUB","EditDate":"2022-04-27T15:59:35.211","Editor":"st63_AUB","Ar_Name":"حديقة الصنائع"}},
{"type":"Feature","geometry":{"type":"Polygon","coordinates":[[[35.48130439107,33.8790136751757],[35.4813418042445,33.8786611454597],[35.4828948266235,33.8787958576469],[35.4828533693278,33.8791482681519],[35.48130439107,33.8790136751757]]]},"properties":{"fid":5,"OBJECTID_1":5,"OBJECTID":21103,"PID":"DP","POINT_X":729568.2526,"POINT_Y":3751502.2836,"dip":1,"area":6029,"G_name":"Ramlet El Baida","case_":"Garden","owner":1,"GlobalID":"d9983641-512c-486e-aad4-5086d39afbae","Shape__Area":5.87201043344976e-7,"Shape__Length":0.00395773057556792,"CreationDate":"2022-03-11T12:43:15.833","Creator":"st63_AUB","EditDate":"2022-04-27T15:58:32.679","Editor":"st63_AUB","Ar_Name":"الرملة البيضاء"}},
{"type":"Feature","geometry":null,"properties":{"fid":7,"OBJECTID_1":7,"OBJECTID":0,"PID":" ","POINT_X":0,"POINT_Y":0,"dip":0,"area":380,"G_name":"Andalus Park","case_":"Garden","owner":1,"GlobalID":"a4219034-a33b-4735-8b2b-cb0dc661ae59","Shape__Area":3.70341695088428e-8,"Shape__Length":0.000770422254504117,"CreationDate":"2022-03-11T12:43:15.833","Creator":"st63_AUB","EditDate":"2022-04-27T15:55:18.209","Editor":"st63_AUB","Ar_Name":"حديقة الأندلس"}},
{"type":"Feature","geometry":null,"properties":{"fid":8,"OBJECTID_1":8,"OBJECTID":0,"PID":" ","POINT_X":0,"POINT_Y":0,"dip":0,"area":279,"G_name":"Al-Rifai","case_":"Garden","owner":1,"GlobalID":"fc569b3f-b6b1-4119-bc3f-10912eb3ad99","Shape__Area":2.71816134045366e-8,"Shape__Length":0.000990401724944266,"CreationDate":"2022-03-11T12:43:15.833","Creator":"st63_AUB","EditDate":"2022-04-27T15:55:07.505","Editor":"st63_AUB","Ar_Name":"الرفاعي"}},
{"type":"Feature","geometry":{"type":"Polygon","coordinates":[[[35.4994480850258,33.8943783957097],[35.499456307225,33.8944641043582],[35.4985258506984,33.8947310745589],[35.4984285247373,33.8945326731626],[35.4991927517891,33.8942547644714],[35.4994480850258,33.8943783957097]]]},"properties":{"fid":10,"OBJECTID_1":10,"OBJECTID":0,"PID":" ","POINT_X":0,"POINT_Y":0,"dip":0,"area":2870,"G_name":"Abdul Rahman el Hout Garden","case_":"Garden","owner":3,"GlobalID":"bb8e6bbd-797b-4961-992d-7aa412d2f0ba","Shape__Area":2.79597884400573e-7,"Shape__Length":0.00328221959059418,"CreationDate":"2022-03-11T12:43:15.833","Creator":"st63_AUB","EditDate":"2022-04-27T15:54:54.411","Editor":"st63_AUB","Ar_Name":"حديقة عبد الرحمن الحوت"}},
{"type":"Feature","geometry":{"type":"Polygon","coordinates":[[[35.5022349260624,33.894349997048],[35.5017993050566,33.8944995128981],[35.5016649316911,33.8944113621086],[35.5015021155396,33.8937061416855],[35.5016315480148,33.8934893740717],[35.5018159371189,33.8934125752599],[35.5020386085591,33.8937160979727],[35.5022349260624,33.894349997048]]]},"properties":{"fid":11,"OBJECTID_1":11,"OBJECTID":0,"PID":" ","POINT_X":0,"POINT_Y":0,"dip":0,"area":5490,"G_name":"Gibran Khalil Gibran Garden","case_":"Garden","owner":3,"GlobalID":"0f67c883-b107-4590-8ca8-2bd533638af2","Shape__Area":5.3479493544728e-7,"Shape__Length":0.00286701190621044,"CreationDate":"2022-03-11T12:43:15.833","Creator":"st63_AUB","EditDate":"2022-04-27T15:55:34.428","Editor":"st63_AUB","Ar_Name":"حديقة جبران خليل جبران"}},
{"type":"Feature","geometry":{"type":"Polygon","coordinates":[[[35.502219854609,33.8965787183825],[35.5018241199785,33.8953587364324],[35.5022674688821,33.8955162324993],[35.502154534915,33.8957299354885],[35.502219854609,33.8965787183825]]]},"properties":{"fid":12,"OBJECTID_1":12,"OBJECTID":0,"PID":" ","POINT_X":0,"POINT_Y":0,"dip":0,"area":1650,"G_name":"Park painter Omar Abu Risha","case_":"Garden","owner":3,"GlobalID":"bfe57b63-4285-443e-b085-aee39e54e1b5","Shape__Area":1.60709305419005e-7,"Shape__Length":0.0028629002049209,"CreationDate":"2022-03-11T12:43:15.833","Creator":"st63_AUB","EditDate":"2022-04-27T15:58:09.802","Editor":"st63_AUB","Ar_Name":"حريقة الرسام عمر أبو  ريشة"}},
{"type":"Feature","geometry":{"type":"Polygon","coordinates":[[[35.5008751084847,33.8887965132413],[35.5003518315601,33.8888460819068],[35.500273392852,33.8887362148728],[35.5002029236101,33.8882678002285],[35.5003359008736,33.8877477106188],[35.5007462820995,33.887722671594],[35.5009206893053,33.8883725539622],[35.5008751084847,33.8887965132413]]]},"properties":{"fid":13,"OBJECTID_1":13,"OBJECTID":0,"PID":" ","POINT_X":0,"POINT_Y":0,"dip":0,"area":6738,"G_name":"Haoud Al Wilaya Park","case_":"Garden","owner":1,"GlobalID":"ae1ec071-e94e-46b4-9553-2e2048add3bf","Shape__Area":6.5636299950711e-7,"Shape__Length":0.00336201823346821,"CreationDate":"2022-03-11T12:43:15.833","Creator":"st63_AUB","EditDate":"2022-04-27T15:55:44.368","Editor":"st63_AUB","Ar_Name":"حديقة حوض الولاية"}},
{"type":"Feature","geometry":{"type":"Polygon","coordinates":[[[35.5018473010791,33.889184656352],[35.501726704254,33.8888589303017],[35.502324555298,33.8887287068058],[35.5023094039795,33.8890169993836],[35.5018473010791,33.889184656352]]]},"properties":{"fid":14,"OBJECTID_1":14,"OBJECTID":0,"PID":" ","POINT_X":0,"POINT_Y":0,"dip":0,"area":1906,"G_name":"Walid Eido Garden","case_":"Garden","owner":1,"GlobalID":"d889ce0e-51b1-456b-ba15-041473211093","Shape__Area":1.85631733984337e-7,"Shape__Length":0.00177033651620099,"CreationDate":"2022-03-11T12:43:15.833","Creator":"st63_AUB","EditDate":"2022-04-27T15:59:51.155","Editor":"st63_AUB","Ar_Name":"حديقة وليد عيدو"}},
{"type":"Feature","geometry":{"type":"Polygon","coordinates":[[[35.5165511484245,33.8919078672928],[35.5156933387094,33.8919570275056],[35.5157354014652,33.8916529741534],[35.5164803196541,33.8915812393147],[35.5165511484245,33.8919078672928]]]},"properties":{"fid":15,"OBJECTID_1":15,"OBJECTID":0,"PID":" ","POINT_X":0,"POINT_Y":0,"dip":0,"area":2603,"G_name":"Saint Nicolas Park","case_":"Garden","owner":1,"GlobalID":"9d454697-8a8d-48a0-a2cb-19b49d8df00c","Shape__Area":2.53572011388314e-7,"Shape__Length":0.00224874979517753,"CreationDate":"2022-03-11T12:43:15.833","Creator":"st63_AUB","EditDate":"2022-04-27T15:58:39.338","Editor":"st63_AUB","Ar_Name":"حديقة مار نقولا "}},
{"type":"Feature","geometry":{"type":"Polygon","coordinates":[[[35.5258281218949,33.8938592400081],[35.5255703094448,33.8931188287027],[35.5259884018799,33.8930293826536],[35.5262413004681,33.8937416078541],[35.5258281218949,33.8938592400081]]]},"properties":{"fid":16,"OBJECTID_1":16,"OBJECTID":0,"PID":" ","POINT_X":0,"POINT_Y":0,"dip":0,"area":3677,"G_name":"Jesuits garden","case_":"Garden","owner":1,"GlobalID":"614bfeee-b994-4dd6-86b5-cf850e5e2a69","Shape__Area":3.582148337955e-7,"Shape__Length":0.00246378075643429,"CreationDate":"2022-03-11T12:43:15.833","Creator":"st63_AUB","EditDate":"2022-04-27T15:57:42.173","Editor":"st63_AUB","Ar_Name":"حديقة اليسوعيين"}},
{"type":"Feature","geometry":{"type":"Polygon","coordinates":[[[35.52841101311294,33.893965846464866],[35.5286630662616,33.8942868212213],[35.52844123606974,33.894326034512865],[35.5283228873509,33.8940480248587],[35.52841101311294,33.893965846464866]]]},"properties":{"fid":17,"OBJECTID_1":17,"OBJECTID":0,"PID":" ","POINT_X":0,"POINT_Y":0,"dip":0,"area":879,"G_name":"william hawi garden","case_":"Garden","owner":3,"GlobalID":"77e09516-c9b0-4997-97e4-12495322af1c","Shape__Area":8.56604174259701e-8,"Shape__Length":0.00122069411909173,"CreationDate":"2022-03-11T12:43:15.833","Creator":"st63_AUB","EditDate":"2022-04-27T15:59:58.555","Editor":"st63_AUB","Ar_Name":"حديقة وليام حاوي"}},
{"type":"Feature","geometry":{"type":"Polygon","coordinates":[[[35.5301720932144,33.9017778216832],[35.5299964328689,33.9013125278483],[35.5304604175312,33.9011776715815],[35.5306816120298,33.901669656466],[35.5301720932144,33.9017778216832]]]},"properties":{"fid":18,"OBJECTID_1":18,"OBJECTID":0,"PID":" ","POINT_X":0,"POINT_Y":0,"dip":0,"area":2981,"G_name":"Karantina Public Park","case_":"Garden","owner":1,"GlobalID":"53dc38f0-7190-473d-b297-47e59b2141a8","Shape__Area":2.90395291813184e-7,"Shape__Length":0.00210015829380617,"CreationDate":"2022-03-11T12:43:15.833","Creator":"st63_AUB","EditDate":"2022-04-27T15:57:53.400","Editor":"st63_AUB","Ar_Name":"حديقة الكرنتينا العامة"}},
{"type":"Feature","geometry":{"type":"Polygon","coordinates":[[[35.5187790462218,33.8748237788649],[35.5186040757948,33.8744228128062],[35.518840328499,33.8744833492053],[35.5187790462218,33.8748237788649]]]},"properties":{"fid":19,"OBJECTID_1":19,"OBJECTID":0,"PID":" ","POINT_X":0,"POINT_Y":0,"dip":0,"area":577,"G_name":"Sami Garden","case_":"Garden","owner":1,"GlobalID":"a3b4c931-0812-41a3-810f-e649d5e07fe5","Shape__Area":5.61528850084869e-8,"Shape__Length":0.00108638524322977,"CreationDate":"2022-03-11T12:43:15.833","Creator":"st63_AUB","EditDate":"2022-04-27T15:58:46.204","Editor":"st63_AUB","Ar_Name":"حديقة سامي"}},
{"type":"Feature","geometry":null,"properties":{"fid":20,"OBJECTID_1":20,"OBJECTID":0,"PID":"حديقة العاملية","POINT_X":0,"POINT_Y":0,"dip":0,"area":679,"G_name":"Al Amlieh Garden","case_":"Garden","owner":3,"GlobalID":"28e9beaf-9281-4499-9bc7-32171cfb6b92","Shape__Area":6.61597141515813e-8,"Shape__Length":0.00122028065873523,"CreationDate":"2022-03-11T12:43:15.833","Creator":"st63_AUB","EditDate":"2022-04-27T15:54:59.119","Editor":"st63_AUB","Ar_Name":"حديقة العاملية"}},
{"type":"Feature","geometry":{"type":"Polygon","coordinates":[[[35.4946016541904,33.87540903922891],[35.49358491516687,33.875691883553735],[35.493537379316415,33.87537395769693],[35.4936528718836,33.875149119693916],[35.494760752722904,33.87478435735435],[35.4946016541904,33.87540903922891]]]},"properties":{"fid":22,"OBJECTID_1":null,"OBJECTID":null,"PID":null,"POINT_X":null,"POINT_Y":null,"dip":null,"area":null,"G_name":null,"case_":null,"owner":null,"GlobalID":null,"Shape__Area":null,"Shape__Length":null,"CreationDate":null,"Creator":null,"EditDate":null,"Editor":null,"Ar_Name":null}},
{"type":"Feature","geometry":null,"properties":{"fid":23,"OBJECTID_1":null,"OBJECTID":null,"PID":null,"POINT_X":null,"POINT_Y":null,"dip":null,"area":null,"G_name":null,"case_":null,"owner":null,"GlobalID":null,"Shape__Area":null,"Shape__Length":null,"CreationDate":null,"Creator":null,"EditDate":null,"Editor":null,"Ar_Name":null}},
{"type":"Feature","geometry":null,"properties":{"fid":24,"OBJECTID_1":null,"OBJECTID":null,"PID":null,"POINT_X":null,"POINT_Y":null,"dip":null,"area":null,"G_name":null,"case_":null,"owner":null,"GlobalID":null,"Shape__Area":null,"Shape__Length":null,"CreationDate":null,"Creator":null,"EditDate":null,"Editor":null,"Ar_Name":null}},
{"type":"Feature","geometry":{"type":"Polygon","coordinates":[[[35.54391337928036,33.88848105965769],[35.544319414669644,33.88886497822215],[35.544162942495234,33.88897431659783],[35.54384009484425,33.88880332118159],[35.54391337928036,33.88848105965769]]]},"properties":{"fid":25,"OBJECTID_1":null,"OBJECTID":null,"PID":null,"POINT_X":null,"POINT_Y":null,"dip":null,"area":null,"G_name":null,"case_":null,"owner":null,"GlobalID":null,"Shape__Area":null,"Shape__Length":null,"CreationDate":null,"Creator":null,"EditDate":null,"Editor":null,"Ar_Name":null}},
{"type":"Feature","geometry":{"type":"Polygon","coordinates":[[[35.52561935088311,33.882774103999786],[35.525815335005056,33.882184200360406],[35.52637095494623,33.88235483819547],[35.5271602900246,33.88272500982913],[35.527357337545695,33.88295285460237],[35.52737049328196,33.883270387318696],[35.52708005569927,33.88348300915994],[35.52664362866989,33.88324925626799],[35.52621544117545,33.88296284355025],[35.52561935088311,33.882774103999786]]]},"properties":{"fid":26,"OBJECTID_1":null,"OBJECTID":null,"PID":null,"POINT_X":null,"POINT_Y":null,"dip":null,"area":null,"G_name":"Sioufi Park","case_":null,"owner":null,"GlobalID":null,"Shape__Area":null,"Shape__Length":null,"CreationDate":null,"Creator":null,"EditDate":null,"Editor":null,"Ar_Name":null}},
{"type":"Feature","geometry":{"type":"Polygon","coordinates":[[[35.48629169342406,33.8815354048212],[35.486215929541714,33.88146860505041],[35.48638755030817,33.880956862749656],[35.48667849656755,33.88139199011252],[35.48629169342406,33.8815354048212]]]},"properties":{"fid":27,"OBJECTID_1":null,"OBJECTID":null,"PID":null,"POINT_X":null,"POINT_Y":null,"dip":null,"area":null,"G_name":null,"case_":null,"owner":null,"GlobalID":null,"Shape__Area":null,"Shape__Length":null,"CreationDate":null,"Creator":null,"EditDate":null,"Editor":null,"Ar_Name":null}},
{"type":"Feature","geometry":{"type":"Polygon","coordinates":[[[35.51532758466339,33.87839741308225],[35.51552510020397,33.878229118204146],[35.515683960583345,33.878225500895084],[35.51587171858023,33.878585971924124],[35.51569293464202,33.878714361361624],[35.51533956547202,33.878660910077045],[35.51532758466339,33.87839741308225]]]},"properties":{"fid":28,"OBJECTID_1":null,"OBJECTID":null,"PID":null,"POINT_X":null,"POINT_Y":null,"dip":null,"area":null,"G_name":null,"case_":null,"owner":null,"GlobalID":null,"Shape__Area":null,"Shape__Length":null,"CreationDate":null,"Creator":null,"EditDate":null,"Editor":null,"Ar_Name":null}}
]}