{"type":"FeatureCollection", "features": [
{"type":"Feature","geometry":{"type":"Polygon","coordinates":[[[35.546636079238354,33.890068664547236],[35.54647782167151,33.889958050847554],[35.546662109992894,33.8897811891244],[35.5467144458873,33.889642527272095],[35.54665881903243,33.889466073637564],[35.54607410718355,33.8887120396094],[35.54466514096736,33.88902261534174],[35.54504358547962,33.889375096506996],[35.54491232780168,33.88946084573163],[35.5446744057043,33.8892454447393],[35.54474006992371,33.88949634860127],[35.54466999099188,33.88950942976998],[35.54453157836839,33.88908038711381],[35.5444863933897,33.889049234003494],[35.5436201301819,33.8892356300483],[35.5435049382603,33.8892531334356],[35.54345413263047,33.88937709582017],[35.5432868415377,33.8893190452503],[35.54311410590989,33.889344048723295],[35.5422428087316,33.8895275423535],[35.54228033965502,33.889752820609644],[35.54221485421404,33.889766538879655],[35.5421486221946,33.88958470631529],[35.5420774267067,33.88957665290689],[35.5414175751766,33.88971956997939],[35.5412757589969,33.889763347132],[35.5403163591332,33.889988050552205],[35.54067489210344,33.890145855828756],[35.540602647210825,33.89026254456587],[35.54007799969259,33.8900382132632],[35.5399036563818,33.89004893662019],[35.5397536505008,33.8900028853057],[35.539683908991606,33.89006701272239],[35.539747952037764,33.890342741709254],[35.539620089774,33.890361016841844],[35.5395454860726,33.8900398202118],[35.53947948546989,33.889996058738895],[35.53926010366439,33.890002655858],[35.5384485421591,33.890177244802295],[35.53843224972294,33.890302814540696],[35.538371399707216,33.89032164952314],[35.5382592300156,33.8902203270856],[35.537886447807,33.8903051613704],[35.53776862436949,33.890351024817804],[35.5376790434722,33.8903266507022],[35.5371424915183,33.89056987226319],[35.5371115218102,33.8905223565848],[35.5374650996616,33.8903620784085],[35.53740860329939,33.89032932827319],[35.5370872506969,33.8903087100823],[35.5367784556518,33.89024323069509],[35.5362973988611,33.8900610807279],[35.536226857207424,33.89017686621797],[35.53604917109313,33.890155012740365],[35.5360112851228,33.89001918970699],[35.53589438932619,33.8900401713134],[35.53581918885546,33.88990221090293],[35.5359068123468,33.8898180496202],[35.535782604504966,33.88973413824696],[35.53586510458076,33.88964549350571],[35.5359635349942,33.88970083559979],[35.5361189524193,33.88968607011919],[35.53639317295232,33.88866418074906],[35.53658248671888,33.88870159367465],[35.5365798333405,33.888870627493],[35.5369324930919,33.8890557573965],[35.5373161070524,33.8891866986596],[35.5376939041161,33.88926288714999],[35.5377738882543,33.8892072525993],[35.53770427557839,33.8884807685882],[35.5376689230884,33.88843840838041],[35.53765475165109,33.888245965861806],[35.5378117671129,33.888351325261894],[35.5380378473939,33.888299605258],[35.53806967579519,33.888558606222595],[35.5381350045176,33.88858249549939],[35.538413697184595,33.8885427973271],[35.538465621899974,33.88846132014616],[35.53860654503,33.8885153275305],[35.53956623899322,33.88837473483904],[35.5394454967492,33.8885063857305],[35.5395298995703,33.8886172530078],[35.539499607827,33.8886778547498],[35.5395453919193,33.8888229333982],[35.5396201140474,33.88886102531751],[35.540629785430205,33.8886971128095],[35.5406657408936,33.88857849606238],[35.540767076736834,33.88867483121573],[35.54115279902103,33.88861223069534],[35.5410295210218,33.88837457053219],[35.54096165156175,33.88832862375912],[35.54172108056201,33.888218382912356],[35.54177892365185,33.888132639823525],[35.542271721030396,33.8880353022465],[35.542374780388,33.888000143567],[35.5428978170159,33.887878266133804],[35.542860468081,33.8877505366652],[35.5426920243463,33.887787998116586],[35.54267316857013,33.88773176924106],[35.542896646813695,33.8876786186875],[35.5428357079038,33.8874646417235],[35.54318352348779,33.8874063521357],[35.54298482450099,33.88680514440401],[35.5429571823121,33.8867685399227],[35.542661907072095,33.8866868624242],[35.54271840262705,33.886542665561116],[35.54287118669749,33.886591252293506],[35.5425373985567,33.8858387972933],[35.5422216352971,33.8858495911091],[35.54222172154302,33.88578492156772],[35.5425168950446,33.8857929872189],[35.5423546752147,33.88549385194854],[35.54255477206535,33.885414657790164],[35.542751794383896,33.8857536202202],[35.543051285195,33.885735196643196],[35.54357241805799,33.885671725443586],[35.54374788486759,33.88562246063388],[35.5437643743905,33.8855570825364],[35.54365860506112,33.88539659641378],[35.54377221312109,33.88533833085165],[35.5438832786239,33.88549294525669],[35.5439847502385,33.8855293279373],[35.5450104443282,33.8850892836977],[35.5450051844344,33.8850103815381],[35.54476244302878,33.88487803627467],[35.544831993920106,33.884815943236205],[35.5450811908374,33.884972041909],[35.5452283862145,33.8850097621972],[35.5457764202401,33.88483730029429],[35.5459237209586,33.8847366176276],[35.5459219928911,33.884685353145606],[35.545666990993034,33.88453264477473],[35.54577538571212,33.88441448589271],[35.54764951418282,33.88554348126454],[35.5478461815411,33.88555891941141],[35.54799061006732,33.885686885632886],[35.548327248394,33.8858871674844],[35.548424265745766,33.88577579849169],[35.54848844801476,33.885813162173555],[35.5483793104228,33.8859395404518],[35.5485553240472,33.8860155449176],[35.54864313858419,33.885903215158606],[35.54873015835398,33.88595387360271],[35.5486126731946,33.8860770250889],[35.5495436986267,33.8866084143669],[35.549651147298,33.886648964485694],[35.550402868481264,33.88709783608267],[35.55019699493878,33.887318667471376],[35.54897061957842,33.886596289346365],[35.54887662726491,33.88661023994749],[35.54860000212254,33.88683856068245],[35.5483668079975,33.887785087567],[35.5481851140487,33.888610201963],[35.548347272531785,33.88846831026806],[35.548394773091324,33.88850728555072],[35.54827063291409,33.88869458332331],[35.54823470716624,33.88907320040736],[35.54795936822891,33.889071865308296],[35.5479812573958,33.888890650335206],[35.5471855345278,33.8896309679549],[35.5471810006096,33.8896842885576],[35.54775634406941,33.889774216279],[35.54773961394778,33.889936488712536],[35.54758060531779,33.88988902141039],[35.5472958222495,33.88985681931669],[35.5468753151008,33.8898540509378],[35.5467605461687,33.889929437457596],[35.546636079238354,33.890068664547236]]]},"properties":{"fid":2,"area":264604}}
]}